ORGANIZATION,EMAIL,PHONE,ADDRESS,WEBSITE,latitude,longitude,status,notes,zipcode,county
Catholic Charities-Hogar Immigrant Services,Hogar@ccda.net,(703) 534-9805,"6301 Little River Turnpike, Suite 300, Alexandria, VA  22312",https://www.ccda.net/hogarlegal/,38.8178023,-77.1438649,Pending,,22312,Alexandria
Center for Assistance to Families,info@mycaf.org,703-372-5440,"13923 Minnieville Rd Woodbridge, VA 22193",http://mycaf.org,38.6496525,-77.3272152,Pending,,22193,Woodbridge
Mental Health America (MHA),,703-684-7722,"500 Montgomery Street, Suite 820, Alexandria, VA, 22314",https://www.mhanational.org/young-minds,38.813668,-77.043379,Pending,,22314,Alexandria
Neighborhood Health,info@nhnva.org,(703) 535-5568,"6677 Richmond Highway, Alexandria, VA 22306",https://neighborhoodhealthva.org/,38.7734939,-77.0804621,Pending,,22306,Alexandria
Operation Renewed Hope (ORHF),,(703) 887-8117,"P.O. Box 10142, Alexandria, VA 22310","https://www.operationrenewedhopefoundation.org/need-help-now-contact-orhf-homeless-veterans/#:~:text=About%20ORHF,-We%20provide%20a&text=If%20you%20are%20a%20Veteran,support%20and%20services%20you%20need.",38.804693,-77.0435257,Pending,,22310,Alexandria
Samson Properties ,David.J.Morales2k@gmail.com,"(703)625-1592, (703)341-6271","6363 Walker Lane Suite 130, Alexandria, VA 22310",https://davidmorales.samsonproperties.net,38.7689257,-77.1569647,Pending,,22310,Alexandria
Tenants and Workers United,communications@tenantsandworkers.org,(703) 684-5697,"3801 Mount Vernon Avenue, Alexandria, VA 22305",https://www.tenantsandworkers.org/,38.8394033,-77.0623191,Pending,,22305,Alexandria
Just Neighbors,info@justneighbors.org,703-979-1240,"7630 Little River Turnpike Suite #900, Annandale, VA 22003",https://www.justneighbors.org/,38.83387,-77.2087563,Pending,,22003,Annandale
"Catholic Charities, Diocese of Arlington",info@ccda.net,703-548-4227,"200 North Glebe Road Suite 250, Arlington, VA 22203","https://www.ccda.net/find-food,-housing,-and-clothing/",38.8721356,-77.1036183,Pending,,22203,Arlington
Ethiopian Community Development Council,info@ecdcus.org,(703) 685-0510,"901 South Highland St, Floor 4, Arlington, VA 22204",https://www.ecdcus.org/,38.8630688,-77.0889761,Pending,,22204,Arlington
National Alliance on Mental Illness (NAMI),,703-524-7600,"4301 Wilson Blvd, Suite 300, Arlington, VA, 22203",https://www.nami.org/Support-Education/,38.8804719,-77.1128927,Pending,,22203,Arlington
Alive Church,hello@AliveVa.org,(571) 535-4788,"PO Box 534, Bristow, VA 20136",http://www.aliveva.org/,38.7492726,-77.5734048,Pending,,20136,Bristow
BARN Community Housing,,703-369-1325,"9541 Linton Hall Road, Bristow, VA 20136
","http://www.barncommunityhousing.org/
",38.7525202,-77.5648695,Pending,,20136,Bristow
Brentsville Presbyterian Church,pbdelash@cs.com,703-368-2546,"12305 Bristow Rd, Bristow, VA 20136",https://www.pcusa.org/congregations/10108/,38.6892242,-77.499504,Pending,,20136,Bristow
Bristow Assembly of God Church,info@BristowAssemblyOfGod.org,(703) 754-9086,"11804 Nokesville Rd, Bristow, VA 20136",http://bristowassemblyofgod.org/,38.7304312,-77.5503596,Pending,,20136,Bristow
Chapel Springs--An Assemblies of God Church,contact@chapelsprings.org,703-368-2895,"11500 New Life Way, Bristow, VA 20136",http://chapelsprings.org/,38.7338042,-77.5401307,Pending,,20136,Bristow
Grace Life Community Church,andrea.reed@gracelifecc.org,571-229-1700,"9560 Linton Hall Rd, Bristow, VA 20136",https://www.gracelifecc.org/,38.748234,-77.5657653,Pending,,20136,Bristow
Hatcher's Memorial Baptist Church,hatchersmbc@outlook.com,703-330-0156,"12225 Barbee Rd, Bristow, VA 20136",https://www.hatchersbaptist.org/,38.6886072,-77.5009139,Pending,,20136,Bristow
New Hope Baptist Church,,(703) 369-7493,"10909 Bristow Rd, Bristow, VA 20136",,38.7192695,-77.533302,Pending,,20136,Bristow
"New Life Christian Church, Linton Hall Campus",info@newlife.church ,703.222.8836 ,"8301 Linton Hall Rd, Bristow, VA 20136",https://newlife.church/linton-hall-campus/,38.774265,-77.5931039,Pending,,20136,Bristow
New Life Community Baptist Church,,(703) 928-2439,"14000 Sudley Manor Dr, Bristow, VA 20136",https://www.nlcbc.org/contact-us,38.7385553,-77.5805429,Pending,,20136,Bristow
Redeemer Baptist Church,mike@redeemerbc.com,904-614-1145,"8990 Worthington Dr, Bristow, VA 20136",https://www.redeemerbc.com/,38.7618932,-77.5894835,Pending,,20136,Bristow
Victory Lakes Community Association,"hoaoffice@victorylakeshoa.com, tschaefer@cmc-management.com",703-368-6660,"12600 Victory Lakes Loop, Bristow, VA 20136",https://victorylakeshoa.com/,38.7591091,-77.5657089,Pending,,20136,Bristow
Youth For Tomorrow,,703-368-7995,"11835 Hazel Cir Dr, Bristow, VA 20136",,38.7395289,-77.5490115,Pending,,20136,Bristow
Grace Community Center Clinic,main@gcchealthsystem.org,(703) 650-9099,"14631 Lee Hwy STE 313, Centreville, VA 20121","https://www.gcchealthsystem.org/
Saturdays: 9:30AM-12:00PM",38.8345213,-77.4544237,Pending,,20121,Centreville
Adams Compassionate Healthcare Network,contact@achnhealth.org,(703) 542-3366,"4431 Brookfield Corporate Drive, Unit F Chantilly, VA 20151",https://achnhealth.org/,38.8853636,-77.4377091,Pending,,20151,Chantilly
Culpeper Housing and Shelter Services,info@culpepershelter.org,540-825-7434,"215 E. Spencer St., Culpeper, VA  22701 ",https://culpepershelter.org/,38.473499,-77.9933391,Pending,,22701,Culpeper
Birchdale Recreation Center,helloparks@pwcgov.org,(703) 792-7060,"14730 Birchdale Ave, Dale City, VA 22193",https://www.pwcva.gov/department/birchdale-community-center,38.6292996,-77.3107866,Pending,,22193,Dale City
Church of Christ,dalecitychurch@dccoc.comcastbiz.net,(703)590 -1790,"13130 Hillendale Dr, Dale City, VA 22193",http://www.churchofchristatdalecity.org/,38.6665491,-77.3354287,Pending,,22193,Dale City
Dale City Library,,703-792-5670,"4249 Dale Blvd, Dale City, VA 22193",www.pwcva.gov/library,38.6460333,-77.3377817,Pending,,22193,Dale City
Good Shephard United Methodist,adminassist@gsumc.net,(703)670-6127,"14999 Birchdale Ave, Dale City, VA 22193",www.http://gsumc.net,38.6283201,-77.3114589,Pending,,22193,Dale City
Hillendale Baptist Church,info@hillendalechurch.org,703 590 3010,"13135 Hillendale Dr, Dale City, VA 22193",https://hillendalechurch.org/,38.6656084,-77.3344654,Pending,,22193,Dale City
ACTS Beverly Warren Emergency Homeless Shelter,info@actspwc.org,703-221-3188,"17866 Main Street, Dumfries, VA 22026",https://actspwc.org/housing-assistance/,38.5649806,-77.329984,Pending,,22026,Dumfries
ACTS Domestic Violence Support,info@actspwc.org,(703) 221-4951,"3900 ACTS lane, Dumfries, VA 22026",https://actspwc.org/domestic-violence/,38.5631747,-77.3290854,Pending,,22026,Dumfries
ACTS Food Assitance,info@actspwc.org,(703) 441-8606,"3900 ACTS Lane, Dumfries, VA 22026",https://www.actspwc.org/services/food-assistance,38.5631747,-77.3290854,Pending,,22026,Dumfries
ACTS Thrfit Store,cwillut@actspwc.us,(703) 221-3298,"3661 Canal Road, Dumfries, VA 22026",https://www.actspwc.org/thrift-store,38.5687205,-77.3221671,Pending,,22026,Dumfries
Badr Community Center of Dumfries,info@bccd.org,(703) 221-2237,"17794 Main St, Dumfries, VA 22026",https://www.bccd.org/,38.5662862,-77.3295065,Pending,,22026,Dumfries
Beverly Warren Emergency Shelter,,(703) 221-3186,"17866 Main Street. Dumfries, VA 22026",https://www.pwcva.gov/department/social-services/homeless-and-winter-shelters,38.5649806,-77.329984,Pending,,22026,Dumfries
Boys and Girls Club (General Heiser Club),operations@bgcgw.org,(703) 441-0611,"17565 Old Stage Coach Road, Dumfries, VA 22026",https://bgcgw.org/clubs/general-heiser-club/,38.571018,-77.3171955,Pending,,22026,Dumfries
Church On the Rock Ministries,,(703) 441-2700,"17732 Washington St, Dumfries, VA 22026",,38.567473,-77.3270223,Pending,,22026,Dumfries
Dumfries Library,,703-792-5678,"18115 Triangle Shopping Plaza, Dumfries, VA 22026
",www.pwcva.gov/library,38.5591671,-77.3326639,Pending,,22026,Dumfries
Dumfries United Methodist Church,,(703) 221-2880,"3890 Cameron St, Dumfries, VA 22026",www.dumfriesumc.org,38.5689619,-77.3286173,Pending,,22026,Dumfries
First Mount Zion Baptist Church,fmzbc@firstmountzionbc.org,703-670-0184,"16622 Dumfries Road, Dumfries, Virginia 22025-1920",https://firstmountzionbc.org/,38.5907564,-77.3358086,Pending,,22025,Dumfries
GPW Health Center -- Dumfries,,(703) 680-7950,"17739 Main St, Dumfries, VA 22026",https://www.gpwhealthcenter.org/,38.5672376,-77.3258747,Pending,,22026,Dumfries
Grace Church,info@gracechurchva.org,(703) 445-1299,"1006 Williamstown Dr, Dumfries, VA 22026",www.gracechurchva.org,38.5656331,-77.3236678,Pending,,22026,Dumfries
Greater Praise Temple Ministries,info@greaterpraisetemple.org,(571) 330-5222,"17838 Main St, Dumfries, VA 22026",www.greaterpraisetemple.org,38.5653763,-77.3297728,Pending,,22026,Dumfries
Harvest Tabernacle,,(571) 477-8014,"17873 Main St F, Dumfries, VA 22026",www.harvesttabernacleva.org,38.5646859,-77.3292304,Pending,,22026,Dumfries
Iglesia Alfa y Omega,,(703) 929-9097,"17505 Mine Rd, Dumfries, VA 22025",,38.5710149,-77.3436309,Pending,,22025,Dumfries
Iglesia Fe Y Amor A D,,"703-499-7780; alt 703-221-1020
(703) 499-7780","17491 Jefferson Davis Hwy, Dumfries, VA 22026",,38.5722681,-77.3163325,Pending,,22026,Dumfries
Little Union Baptist Church,littleunion@verizon.net,(703) 221-4994,"17150 Mine Rd, Dumfries, VA 22025",www.little-union.org,38.5798138,-77.3474059,Pending,,22025,Dumfries
Montclair Tabernacle Church of God,,(703) 670-8907,"16120 Dumfries Rd, Dumfries, VA 22025",www.montclairtab.org,38.602559,-77.3486029,Pending,,22025,Dumfries
Pillar Church of Dumfries,"jake@pillardumfries.com
jake@pillardumfries.com
jake@pillardumfries.com",(571) 931-6896,"17700 Wayside Dr, Dumfries, VA 22026",https://pillarchurchsbc.com/,38.5658,-77.3069543,Pending,,22026,Dumfries
Potomac Shores Recreation Center -- Shores Club,,,"1801 Potomac Shores Pkwy, Dumfries, VA 22026",https://potomacshores.com/lifestyle/shores-club/,38.5735741,-77.2723619,Pending,,22026,Dumfries
River of Life Church,,540-659-3493,"3130 PANTHER PRIDE DRIVE, DUMFRIES, VA 22026",http://www.rolchurchva.com,38.5927034,-77.3068218,Pending,,22026,Dumfries
Southbridge Community Association,,(703) 221-7716,"17325 River Ridge Blvd, Dumfries, VA 22026",http://www.southbridgeva.us/southbridgeva/home.asp,38.576393,-77.299631,Pending,,22026,Dumfries
Spirit of Truth Deliverance Church of God in Christ,Truthp1@aol.com,(703) 445-0272,"17775 Main Street Dumfries, VA 22026",www.sotdc.org,38.5666024,-77.3280616,Pending,,22026,Dumfries
St. Francis House,francias@stfrncis.org,(703) 221-6344,"2606 Heth Court., Dumfries, VA 22026",http://www.stfrncis.org/st-francis-house/,38.5595852,-77.3273995,Pending,,22026,Dumfries
St. Francis of Assisi,francias@stfrncis.org,703-221-6344,"2606 Heth Court., Dumfries, VA 22026",https://stfrncis.org/,38.5595852,-77.3273995,Pending,,22026,Dumfries
Turning Points Domestic Violence Intervention and Shelter,info@actspwc.us,703-221-4460 or 703-221-4951,"3900 ACTS Lane, Dumfries, VA 22026",https://actspwc.org/,38.5631747,-77.3290854,Pending,,22026,Dumfries
Word of Faith Christian Fellowship Church,wofcfva@yahoo.com,(703) 441-3510,"17650 Possum Point Rd, Dumfries, VA 22026",http://www.wofcf.org/,38.5688044,-77.3185979,Pending,,22026,Dumfries
Formed Families Forward,Info@FormedFamiliesForward.org,(703) 539-2904,"10304 Eaton Place Suite 100, Fairfax, VA 22030",https://formedfamiliesforward.org/services/consultation-and-support/,38.8621957,-77.3032399,Pending,,22030,Fairfax
Suicide Prevention Alliance of Northern Virginia,suicidepreventionnva@fairfaxcounty.gov,,"8221 Willow Oak Corporate Dr, Fairfax, VA 22031",https://www.suicidepreventionnva.org/,38.8637346,-77.2339313,Pending,,22031,Fairfax
The Arc - Northern Virginia,,703-208-1119,"3060 Williams Drive, Suite 300 Fairfax, VA 22031",https://thearcofnova.org/program/support-coordination/,38.8664763,-77.2341388,Pending,,22031,Fairfax
Victoria Transcultural Clinical Centre,info@vtccmail.com, (703) 257-5997,"3541 Chain Bridge Rd, Ste 204 Fairfax, VA 22030",https://vtcc.health/,38.8607341,-77.3054254,Pending,,22030,Fairfax
Virginia 512 SEIU ,info@seiuva.org,(571) 432-0209,"3545 Chain Bridge Road, Suite 106 Fairfax, VA 22030",https://www.seiuva.org/prince-william-county/,38.8607787,-77.3061428,Pending,,22030,Fairfax
Legal Aid Justice Center ,johncano@justice4all.org,(434)249-4118,"6402 Arlighton Blvd, Suite 1130 Falls Church, VA 22032",www.justice4all.org,38.8734906,-77.1599794,Pending,,22032,Falls Church
NOVA Scripts Central,info@novascriptscentral.org,(703) 532-0269,"6400 Arlington Blvd, Ste 120, Falls Church, VA 22042",https://novascriptscentral.org/,38.8727611,-77.160305,Pending,,22042,Falls Church
Eleanor U. Kennedy Shelter,,703-799-0200,"9155 Richmond Highway, Fort Belvoir, VA 22060",https://www.newhopehousing.org/our-services/shelters/eleanor-u-kennedy-shelter/,38.7078467,-77.1596836,Pending,,22060,Fort Belvoir
Empowerhouse (Fredericksburg),office@empowerhouseva.org,540-373-9372/540-373-9373,"150 Olde Greenwich Drive, Suite 101, Fredericksburg, VA 22408",https://www.empowerhouseva.org,38.271137,-77.4812666,Pending,,22408,Fredericksburg
Postpartum Support Virginia (PWC),info@postpartumva.org,(703) 829-7152,"Post Office Box 5742, Fredericksburg, VA 22403",https://postpartumva.org,38.32,-77.47,Pending,,22403,Fredericksburg
Virginia Community Food Connections,Info@virginiacfc.org,540-940-7914,"P.O Box 7664, Fredericksburg, VA 22404",virginiacfc.org,38.3059431,-77.4801322,Pending,,22404,Fredericksburg
Casa BruMar Foundation,secretary@casabrumarfoundation.org,,"PO Box 953 Gainesville, Virginia 20156-0953",casabrumarfoundation.org,38.7956706,-77.6138802,Pending,,20156,Gainesville
Church of the Word Anglican,admin@churchoftheword.net,‭(703) 754-9673‬,"7500 Logos Way, Gainesville, VA 20155",https://www.churchoftheword.net/,38.7946379,-77.6157366,Pending,,20155,Gainesville
Dominion Community Church,INFO@DOMINIONCC.ORG,571-781-2310,"7371 Atlas Walk Way, Gainesville, VA 20155",https://www.dominioncc.org/,38.7958118,-77.6092077,Pending,,20155,Gainesville
Gainesville Presbyterian Church,gpchurchmail@gmail.com,703-754-8791,"16127 Lee Hwy, Gainesville, VA 20155",http://www.gpcweb.org/,38.7812432,-77.6684535,Pending,,20155,Gainesville
Gateway Bible Church,info@gbcnova.com,(540) 341-8373,"8001 Limestone Dr, Gainesville, VA 20155",http://www.gbcnova.com/,38.7828636,-77.5975481,Pending,,20155,Gainesville
Grace Church of Gainesville,,(703) 753-1962,"7506 James Madison Hwy, Gainesville, VA 20155",http://www.gcgv.org/,38.7929608,-77.6665768,Pending,,20155,Gainesville
Haymarket Church of Christ,,(571) 261-8535,"6945 Gillis Way, Gainesville, VA 20155",http://haymarketcofc.org/,38.8067284,-77.6263695,Pending,,20155,Gainesville
Haymarket Regional Food Pantry,,(703) 754-5990,"7669 Limestone Drive, #105, Gainesville, VA 20155",https://haymarketfoodpantry.org,38.7906359,-77.5980314,Pending,,20155,Gainesville
Holy Trinity Catholic Church,adminasst@holytrinityparish.net,(703) 753-6700,"8213 Linton Hall Rd, Gainesville, VA 20155",http://www.holytrinityparish.net/,38.7797,-77.5986809,Pending,,20155,Gainesville
National Community Church - Gainesville,,"(202) 544-0414 , (202) 417, 3980","8001 Gateway Promenade Pl, Gainesville, VA 20155",https://theaterchurch.com/,38.7870631,-77.6058667,Pending,,20155,Gainesville
Northern Virginia Baptist Center,,(703) 754-7451,"14019 Glenkirk Rd, Gainesville, VA 20155",http://www.nvbcenter.org/,38.7719124,-77.609651,Pending,,20155,Gainesville
Potomac Ministry Center,info@potomacag.org,703-753-0300,"14525 John Marshall Hwy, Gainesville, VA 20155",http://www.potomacag.org/,38.8059707,-77.6246865,Pending,,20155,Gainesville
Prince William County - Gainsville District,,"(703)792-5785, (703)792-6196, (703)792-8407","13575 Heathcote Blvd. Suite 150, Gainesville, Virginia 20155",,38.8020814,-77.5992423,Pending,,20155,Gainesville
Solid Rock Christian Church,,(703) 393-2822,"4284 Stepney Dr, Gainesville, VA 20155",http://www.solidrock-cc.org/,38.8652427,-77.6155193,Pending,,20155,Gainesville
United Pentecostal Church,,(703) 754-4605,"14002 Glenkirk Rd, Gainesville, VA 20155",,38.7790135,-77.6091026,Pending,,20155,Gainesville
Virginia Gateway Shopping Center,,,"7400 Linton Hall Rd, Gainesville, VA 20155
",www.pwcva.gov/library,38.7934228,-77.6104918,Pending,,20155,Gainesville
Haymarket Baptist Church,,(703) 754-8546,"14800 Washington St, Haymarket, VA 20169",http://www.haymarketbaptistchurch.org/,38.8107736,-77.6323919,Pending,,20169,Haymarket
Haymarket Church,info@haymarketchurch.org,(703) 688-2546,"14951 Washington St, Haymarket, VA 20169",https://haymarketchurch.org/,38.8119199,-77.6362285,Pending,,20169,Haymarket
Haymarket Gainesville Library,,703-792-8700,"14870 Lightner Rd, Haymarket, VA 20169
",www.pwcva.gov/library,38.8366242,-77.632222,Pending,,20169,Haymarket
Living Hope Seventh-day Adventist Church,info@LivingHopeSDA.com,(703) 803-0367,"5235 Merchants View Sq, Haymarket, VA 20169",https://www.livinghopesda.com/,38.8431503,-77.6436811,Pending,,20169,Haymarket
Park Valley Church,info@parkvalleychurch.com,571.261.2136,"4500 Waverly Farm Drive, Haymarket, VA 20169 ",https://www.parkvalleychurch.com/,38.8604128,-77.6386374,Pending,,20169,Haymarket
Piedmont Bible Church,,(571) 284-7166,"14910 Washington St, Haymarket, VA 20169",http://www.piedmontbible.org/default.asp?sec_id=180007593,38.8119563,-77.635065,Pending,,20169,Haymarket
Rainbow Therapeutic Riding Center,rainbow@rainbowriding.org,(703) 794-5308,"16198 Silver Lake Rd, Haymarket, VA 20169",https://www.rainbowriding.org/,38.8452962,-77.6670648,Pending,,20169,Haymarket
Redeemed Heart Church,PASTOR@REDEEMEDHEARTCHURCH.ORG,571-229-7392,"5501 MERCHANTS VIEW SQUARE, SUITE 256, HAYMARKET, VA, 20169",https://www.redeemedheartchurch.org/,38.8448994,-77.6393043,Pending,,20169,Haymarket
Shepherd of the Hills Lutheran Church,pastordarcy@sothva.org,(703) 754-3640,"4090 Sudley Rd, Haymarket, VA 20169",https://www.sothva.org/,38.8678712,-77.6327966,Pending,,20169,Haymarket
St. Paul's Episcopal Church,stpaulsepiscopalhaymarket@gmail.com,(703) 753-2443,"6750 Fayette St, Haymarket, VA 20169",http://www.stpaulsepiscopalhaymarket.org/default.asp,38.8110899,-77.639003,Pending,,20169,Haymarket
The Sound Church,,(703) 346-0323,"15801 Tanning House Pl, Haymarket, VA 20169",https://www.findhope.church/,38.8453049,-77.661129,Pending,,20169,Haymarket
Canterbury Woods Community Center,,(703) 491-2154,"12184 Chaucer Ln, Lake Ridge, VA 22192",http://www.lakeridgeva.com/page/299~61272/Amenities,38.6856096,-77.3247185,Pending,,22192,Lake Ridge
Lake Ridge Library,,703-792-5675,"2239 Old Bridge Rd, Lake Ridge, VA 22192",www.pwcva.gov/library,38.6761478,-77.281685,Pending,,22192,Lake Ridge
Lake Ridge Parks and Recreation Association,,(703) 491-2154,"12350 Oakwood Dr, Lake Ridge, VA 22192",https://lakeridgeva.com/,38.6839168,-77.2945195,Pending,,22192,Lake Ridge
Madinatul Uloom,,(703) 345-9332,"12750 Vantage Vew Lane, Lake Ridge, VA 22192",https://www.mtuva.com/,38.6773283,-77.2688582,Pending,,22192,Lake Ridge
Move Church,hello@onthemove.org,(703) 583-6683,"13061 Touchstone Cir, Lake Ridge, VA 22192",http://onthemove.org/,38.6761129,-77.3350145,Pending,,22192,Lake Ridge
St Matthew's Lutheran Church,stmatthews@stmatthews.us,703-494-3090,"12351 All Saints Pl, Lake Ridge, VA 22192",https://www.stmatthews.us/,38.6851893,-77.3085699,Pending,,22192,Lake Ridge
St. Elizabeth Ann Seton Catholic Church,receptionist@seas1.org,(703) 494-4008,"12805 Valleywood Dr, Lake Ridge, VA 22192",https://setonlakeridge.org/,38.6750619,-77.301354,Pending,,22192,Lake Ridge
Capital Area Food Bank,,(571) 482-4770,"6833 Hill Park Drive, Lorton, VA 22079",https://www.capitalareafoodbank.org/,38.7411408,-77.179733,Pending,,22079,Lorton
AI-Anon Service Center of Northern VA,Info@alanonva.com,703-534-4357,"8569 Sudley Road, Suite A, Manassas, VA  20110",https://alanonva.com/,38.7702939,-77.4906032,Pending,,20110,Manassas
All Saints Catholic Church,parishoffice@allsaintsva.org,(703) 368-4500,"9300 Stonewall Rd, Manassas, VA 20110",http://allsaintsvachurch.org/,38.7537954,-77.4846511,Pending,,20110,Manassas
Apply for Public Assistance -- Department of Social Services,,(703) 792-7500,"7987 Ashton Avenue, Suite 200, Manassas, VA 20109",https://www.pwcva.gov/department/social-services/apply-public-assistance,38.7883026,-77.5192123,Pending,,20109,Manassas
Bethel Lutheran Church,Office@BethelManassas.org ,703-368-3943,"8712 Plantation Ln, Manassas, VA 20110",https://www.bethelmanassas.org/,38.7676938,-77.4827361,Pending,,20110,Manassas
Bethlehem Lutheran Church,admin@bethlehem-lutheran.org,(703) 361-4866,"9748 Copeland Dr, Manassas, VA 20109",http://www.bethlehem-lutheran.org/,38.7939294,-77.4878218,Pending,,20109,Manassas
Blooms Mill Hoa,Kelly.Bernard@fsresidential.com,(703) 679-1542; alt (703) 368-6639,"8192 Whispering Wind Ln, Manassas, VA 20111",,38.7750978,-77.4469391,Pending,,20111,Manassas
Boys and Girls Club (Martin K. Alloy Club of Manassas),operations@bgcgw.org,(703) 365-2582,"9501 Dean Park Lane, Manassas, VA 20110",https://bgcgw.org/clubs/the-martin-k-alloy-boys-girls-club-of-manassas/,38.7428896,-77.4915055,Pending,,20110,Manassas
Buckhall United Methodist Church,pastor@buckhall-umc.org,(703) 368-0276 ,"10251 Moore Dr, Manassas, VA 20111",http://www.buckhall-umc.org/,38.7340274,-77.4324763,Pending,,20111,Manassas
Bull Run Library,,703-792-4500,"8051 Ashton Ave, Manassas, VA 20109",www.pwcva.gov/library,38.7869142,-77.5205611,Pending,,20109,Manassas
Bull Run Unitarian Universalists,office@bruu.org,703-361-6269,"9350 Main St, Manassas, VA 20110",http://www.bruu.org/,38.7516535,-77.4720346,Pending,,20110,Manassas
Calvary Chapel of Manassas,davidspear@calvarychapelmanassas.org,703-369-7786,"9312 Brentsville Rd, Manassas, VA 20112",http://www.calvarychapelmanassas.org/,38.7060313,-77.4787034,Pending,,20112,Manassas
Central Library,,703-792-8360,"8601 Mathis Ave, Manassas, VA 20110
",www.pwcva.gov/library,38.7687535,-77.4548693,Pending,,20110,Manassas
Childrens Center of Manassas,,(703) 791-3838,"12019 Falling Creek Dr, Manassas, VA 20112",http://www.dss.virginia.gov/facility/search/cc2.cgi?rm=Details;ID=36491,38.6908473,-77.4402551,Pending,,20112,Manassas
Christian Church in Manassas - The Church of Jesus Christ of Latter-day Saints,,(703) 988-1205,"5750 Websters Way, Manassas, VA 20112",https://local.churchofjesuschrist.org/en/us/va/manassas/5750-websters-way,38.6739349,-77.3806904,Pending,,20112,Manassas
Christian Life Church,info@myclcchurch.org,(703) 365-0800,"7845 Ashton Ave, Manassas, VA 20109",http://myclcchurch.org/,38.7891743,-77.5199739,Pending,,20109,Manassas
Church of God-Souls Harbor,soulsharbormanassas@gmail.com,(703) 369-1222,"8900 Portner Ave, Manassas, VA 20110",https://soulsharborcog.com/,38.7626113,-77.4651732,Pending,,20110,Manassas
Community Services -- Phoenix Center,emailcsb@pwcgov.org,(703) 792-7800,"8500 Phoenix Drive, Manassas, VA, 20110",https://www.pwcva.gov/department/community-services/vocational-rehabilitation/,38.763646,-77.454086,Pending,,20110,Manassas
Community Services -- Sudley North,,703-792-5241,"7969 Ashton Avenue, Manassas, VA 20109",https://www.pwcva.gov/department/community-services,38.7885068,-77.5189456,Pending,,20109,Manassas
Community Services Board,,(703) 792-7800,"7969 Ashton Ave, Manassas, VA 20109",,38.7885068,-77.5189456,Pending,,20109,Manassas
Counseling Associates of Virginia,,(703) 330-5155,"8401 Dorsey Circle, Suite 201, Manassas, VA, 20110",http://counselingassociatesofva.com/Index.aspx,38.7694424,-77.4866173,Pending,,20110,Manassas
Creating Foundations for Hope,info@cfhva.org,703-221-4510,"7702 Donegan Drive, Manassas, VA 20109",https://cfhva.org/food-pantry/,38.7899186,-77.5172169,Pending,,20109,Manassas
Crossway Fellowship,STAFF@CROSSWAYFELLOWSHIP.ORG,703-368-2386,"8601 Plantation Ln, Manassas, VA 20110",https://www.crosswayfellowship.org/,38.7694133,-77.4802513,Pending,,20110,Manassas
Dar Alnoor Islamic Community Center,,(703) 580-0808,"5404 Hoadly Rd, Manassas, VA 20112",http://www.daralnoor.org/,38.6766802,-77.3702631,Pending,,20112,Manassas
Destiny Life International Church,pastorfrank@destinylifeusa.org,(703) 331-3570,"8785 Commerce Ct #201, Manassas, VA 20110",http://destinylifeusa.org/,38.7592929,-77.4592435,Pending,,20110,Manassas
E. Carrington Family Enrichment Center,,703-530-9800,"9300 Forest Point Circle, Manassas, VA 20110",https://e-carrington.org,38.7657489,-77.4793186,Pending,,20110,Manassas
Early Head Start Child Development Center -- Georgetown South,,571.748.2770,"9444 Taney Road, Manassas, VA 20110",https://www.nvfs.org/our-services/early-childhood-development/early-head-start/,38.7413285,-77.4728188,Pending,,20110,Manassas
Emergency Services Crisis Intervention Program -- Manassas Office,,(703) 792-7800,"Sudley North Government Center 8033 Ashton Ave., Manassas, VA 20109",https://www.pwcva.gov/department/community-services/crisis-intervention,38.7885886,-77.5197251,Pending,,20109,Manassas
Emmanuel Baptist Church,rbarton@ebcnva.org,703-368-9206.,"8006 Centreville Rd, Manassas, VA 20111",http://www.ebcnva.com/,38.7820182,-77.4508506,Pending,,20111,Manassas
English as a Second Language and Immigrant Ministries (ESLIM),office@eslim.org,(703) 841-0292,"9750 Wellington Rd. Manassas, VA 20110",https://eslim.org/students/classes-schedules/,38.7380603,-77.4764307,Pending,,20110,Manassas
Evergreen Community Church,,(703) 361-6773,"9501 Dean Park Ln, Manassas, VA 20110",http://evergreen.org/,38.7428896,-77.4915055,Pending,,20110,Manassas
Family Insight,,(571) 208-0592,"7960 Donegan Drive, Suite 200, Manassas, VA, 20109",https://familyinsight.net/,38.7892798,-77.5184323,Pending,,20109,Manassas
First AME Church of Manassas,famechurchoffice@comcast.net,703.361.8791,"10313 S Grant Ave, Manassas, VA 20110",http://famechurch.com/,38.7304261,-77.4600536,Pending,,20110,Manassas
First Baptist Church of Manassas,FBCADMIN@FBCMANASSAS.ORG,703-368-2935,"9258 Center St, Manassas, VA 20110",https://www.fbcmanassas.org/,38.750912,-77.4763367,Pending,,20110,Manassas
Food Pantry by Woodbridge Workers,,703-969-0197,"10934 Coverstone Drive, Manassas, VA 20109",,38.794452,-77.5221068,Pending,,20109,Manassas
Forest Park Mobile Home Community,customer.care@forestparkmhp.com,(703) 791-3054,"7800 Tayloe Drive Lot 125, Manassas, VA 20112",https://www.dwoskin.com/forest-park-mobile-home-community.aspx,38.6640296,-77.4350567,Pending,,20112,Manassas
Freedom Aquatic & Fitness Center,freedomc@gmu.edu,(703)993-8444,"9100 Freedom Center Blvd, Manassas, VA 20110",http://www.freedom-center.com,38.7591571,-77.5196192,Pending,,20110,Manassas
Georgetown South Community Council,frontdesk@georgetownsouth.org,703.361.4500,"9444 Taney Rd # 100, Manassas, VA 20110",http://georgetownsouth.org/,38.7413285,-77.4728188,Pending,,20110,Manassas
GPW Health Center -- Manassas,,(703) 680-7950,"9705 Liberia Ave Unit 201, Manassas, VA 20110",https://www.gpwhealthcenter.org/,38.7459868,-77.4486488,Pending,,20110,Manassas
Grace Korean Church,,(571) 379-5665,"7223 Centreville Rd, Manassas, VA 20111",,38.7990294,-77.446084,Pending,,20111,Manassas
Grace United Methodist Church,office@umcgrace.org,703-393-2345,"9750 Wellington Rd, Manassas, VA 20110",https://umcgrace.org/,38.7380603,-77.4764307,Pending,,20110,Manassas
Greater Mt Calvary Christian Church,,(703) 368-9987,"9514 Westmoreland Ave, Manassas, VA 20110",,38.7795093,-77.485537,Pending,,20110,Manassas
Habitat for Humanity,info@habitatpwc.org,(703) 369-6145,"10159 Hastings Drive Manassas, VA 20110",https://habitatpwc.org/,38.7324823,-77.4761126,Pending,,20110,Manassas
High School Completion Program PWC,AdultEd@pwcs.edu,(703) 791-7200,"14715 Bristow Rd., Manassas, VA 20112",https://www.pwcs.edu/academics___programs/adult_education/high_school_completion/index,38.6365571,-77.4347368,Pending,,20112,Manassas
Holy Light United Baptist Church,,(703) 369-3475,"7319 Old Compton Rd # A, Manassas, VA 20109",,38.7953024,-77.5371892,Pending,,20109,Manassas
Homeless Intervention Program (HIP) -- Prince William County Department of Social Services,,(703) 792-7549,"7987 Ashton Avenue, Suite 200, Manassas, VA 20109","https://virginianavigator.org/program/30588/homeless-intervention-program-hip#:~:text=The%20Homeless%20Intervention%20Program%20(HIP,area%20median%20income%20or%20lower.",38.7883026,-77.5192123,Pending,,20109,Manassas
Hope for NOVA,connect@hopefornova.org,,"Historic District, 15024 Dumfries Rd, Manassas, VA 20112",https://hopefornova.org/,38.6253188,-77.4087991,Pending,,20112,Manassas
Hope Hill Church,hello@hopehillchurch.org,(571) 402-4900,"15300 Bowmans Folly Dr, Manassas, VA 20112",http://www.hopehillchurch.org/,38.6226468,-77.3942994,Pending,,20112,Manassas
Hope Lutheran Church,secretary@hopemanassas.org,703.361.8732,"10391 Sudley Manor Dr, Manassas, VA 20109",http://www.hopemanassas.org/,38.7887238,-77.507455,Pending,,20109,Manassas
House of Mercy,jroot@houseofmercyva.org,703-579-0280,"8170 Flannery Ct, Manassas VA 20109",https://houseofmercyva.org/,38.7815467,-77.5578669,Pending,,20109,Manassas
House of Mercy Thrift Store,jroot@houseofmercyva.org,(703) 659-1636,"8170 Flannery Court, Manassas, VA 20109",https://houseofmercyva.org/thrift-store/,38.7815467,-77.5578669,Pending,,20109,Manassas
Humality First USA - Masroor Mosque Food Pantry,fundraiser@humanityfirstusa.org,,"5640 Hoadly Road, Manassas, VA 20112",https://humanityfirstusa.org/portfolio/manassas-food-pantry/,38.6759803,-77.3742077,Pending,,20112,Manassas
Human Service Alliance of Greater Prince William,info@alliancegpw.org,703-344-4729,"7542 Diplomat Drive, First Floor, Manassas, VA 20109",https://www.alliancegpw.org/rentassistance,38.7929135,-77.5175528,Pending,,20109,Manassas
Hunger Resource Center,ddixon@nvfs.org,571-748-2680,"10058 Dean Drive, Manassas, VA 20110",https://www.nvfs.org/our-services/health-well-being/food-assistance/,38.7445797,-77.5007122,Pending,,20110,Manassas
Iglesia Alianza Cristiana y Misionera De Virginia,,"(571) 226-0467
571-244-1379  ","8220 Spruce St, Manassas, VA 20111",http://www.acmweb.net/?page_id=41,38.7826473,-77.4487476,Pending,,20111,Manassas
Iglesia Bautista Emmanuel Manassas,Kleberjimenez@hotmail.com,"703-717-8608
(703) 717-8608","10213 Nokesville Rd, Manassas, VA 20110",https://www.facebook.com/pages/category/Religious-Organization/Iglesia-Bautista-Emanuel-Manassas-383573508767790/,38.7468344,-77.5031988,Pending,,20110,Manassas
Iglesia Cristiana Proposito Eterno,,"703-217-8528; alt 571-208-1238
(703) 217-8528","8533 Phoenix Dr, Manassas, VA 20110",,38.7628423,-77.4551159,Pending,,20110,Manassas
Iglesia Maranatha Virginia,,(703) 789-0427,"7507 Presidential Ln, Manassas, VA 20109",,38.794286,-77.518058,Pending,,20109,Manassas
Iglesia Mision Cristiana Agape,,703-389-4582,"8025 Rugby Rd, Manassas, VA 20111",https://misioncristianaagape.com/,38.7885345,-77.4424532,Pending,,20111,Manassas
Iglesia Pentecostal la Ultima Cosecha,,(703) 335-0184,"8738 Yorkshire Ln, Manassas, VA 20111",https://www.facebook.com/pages/Iglesia-Pentecostal-la-Ultima-Cosecha/230210174147616,38.7900845,-77.464864,Pending,,20111,Manassas
"Iglesia Pentecostal Manassas, A+ Monte De Los Olivos",,(540) 408-6778,"8280 Rugby Rd, Manassas, VA 20111",,38.7907583,-77.4491124,Pending,,20111,Manassas
Iglesia Pentecostes La Nueva Jerusalen,Iglesiaplnj@gmail.com,(571)288-1748,"7236 Nathan Ct, Manassas, VA 20109",https://www.iglesiaplnj.org/,38.799582,-77.522597,Pending,,20109,Manassas
Iglesia Principe De Paz,,(703) 257-4311,"7228 Nathan Ct, Manassas, VA 20109",,38.799888,-77.5228654,Pending,,20109,Manassas
Iglesia Tabernaculo De Adoracion,,(703) 944-7546,"Historic District, 10967 Lute Ct, Manassas, VA 20109",,38.8007003,-77.5233307,Pending,,20109,Manassas
Independence Empowerment Center,kyoung@ieccil.org,703-257-5400,"8409 Dorsey Circle, Suite 101, Manassas, VA 20110",https://ieccil.org/,38.7695876,-77.4864703,Pending,,20110,Manassas
Independent Hill Library,,703-792-5668,"14418 Bristow Rd, Manassas, VA 20112
",www.pwcva.gov/library,38.6374021,-77.4455237,Pending,,20112,Manassas
Khatam-Un-Nabiyeen Center,,703-330-0555,"7216 Nathan Ct, Manassa, VA 22109",,38.8003454,-77.5231292,Pending,,22109,Manassas
La Ultima Cosecha,,(703) 335-0184,"8738 Yorkshire Ln, Manassas, VA 20111",,38.7900845,-77.464864,Pending,,20111,Manassas
Legal Services of Northern Virginia,help@lsnv.org,703-368-5711,"9240 Center Street, Manassas, VA 20110",https://www.lsnv.org/what-we-do/,38.7510228,-77.4756869,Pending,,20110,Manassas
Life Connection Church,GETINFO@LIFECONNECTIONPWC.COM,703-365-7726​,"9510 Technology Dr, Manassas, VA 20110",https://www.lifeconnectionpwc.com/,38.7494058,-77.4956973,Pending,,20110,Manassas
Life of Church Manassas,hello@welovechurch.com,(703) 330-0881," 10501 Copeland Drive, Manassas, VA",https://welovechurch.com/outreach/food-pantry/,38.7897495,-77.5056151,Pending,,20109,Manassas
Living Faith Church,administration@livingbyfaith.com,703-331-3820,"10266 Battleview Pkwy, Manassas, VA 20109",https://www.livingbyfaith.com/,38.8079727,-77.5126427,Pending,,20109,Manassas
"Long & Foster Old Town Manassas, VA - Realty",theresa.dalman@longandfoster.com,703-257-2118,"9104 Church Street #201, Manassas, VA, 20110",https://www.longandfoster.com/Office/LongandFosterOldTownManassasVARealty-102692,38.7518999,-77.4723686,Pending,,20110,Manassas
Manassas Baptist (Western Prince William County),,571-277-0728,"8730 Sudley Rd, Manassas, VA 20110",,38.7648185,-77.4827896,Pending,,20110,Manassas
Manassas Baptist Church,info@manassasbaptist.org, 703-361-2146 ,"8730 Sudley Rd, Manassas, VA 20110",http://werchurch.com/,38.7648185,-77.4827896,Pending,,20110,Manassas
Manassas Church of Christ,,703.368.2622,"8110 Signal Hill Rd, Manassas, VA 20111",http://manassaschurch.org/,38.7491999,-77.4466085,Pending,,20111,Manassas
Manassas City Animal Adoption Center,animalshelter@ci.manassas.va.us,703-257-2420,"10039 Dean Drive, Manassas, Virginia, 20110",https://pwspca.org/food/,38.7457704,-77.4994686,Pending,,20110,Manassas
Manassas City Library,,703-792-8820,"10104 Dumfries Rd, Manassas, VA 20110
",www.pwcva.gov/library,38.7372205,-77.4748741,Pending,,20110,Manassas
Manassas Commuter Rail Station Library,,,"9451 West St, Manassas, VA 20110",www.pwcva.gov/library,38.7501402,-77.4728039,Pending,,20110,Manassas
Manassas Hope For the Homeless -- Manassas Baptist Church,office@mbcnova.org,703-277-7140,"8730 Sudley Rd, Manassas, VA 20110",https://mbcnova.org/,38.7648185,-77.4827896,Pending,,20110,Manassas
Manassas Masjid,info@manassasmosque.org,(703) 257-5537,"12950 Center Entrance Ct. Manassas, VA 20109",http://islamic-city.org/,38.7997191,-77.5219814,Pending,,20109,Manassas
Manassas Muslim Association - Jaam'i Masjid,info@manassasmuslims.org,(703) 962-7477,"9059 Euclid Ave, Manassas, VA 20110",http://www.manassasmuslims.org/,38.7609694,-77.4523897,Pending,,20110,Manassas
Manassas Seventh-day Adventist Church,,703-335-1710,"9858 Fairmont Ave, Manassas, VA 20109",http://www.msdachurch.org/,38.777365,-77.4940722,Pending,,20109,Manassas
Manassas VA Red Cross Blood and Platelet Donation Center,,800-RED CROSS,"10360 Portsmouth Rd., Manassas, VA 20109",https://www.redcross.org/local/dc-va-md-de.html,38.7801277,-77.5074326,Pending,,20109,Manassas
Masroor Mosque-Ahmadiyya Muslim Community,masroor.mosque@ahmadiyya.us,(703) 590-5500,"5640 Hoadly Rd, Manassas, VA 20112",https://www.muslimsforpeace.org/,38.6759803,-77.3742077,Pending,,20112,Manassas
McLean Bible Church,,703-639-2000,"10002 Battleview Pkwy, Manassas, VA 20109",https://www.mcleanbible.org/locations/prince-william,38.8065219,-77.510449,Pending,,20109,Manassas
Meadowbrook Woods Clubhouse & Pool,,(703) 794-9025,"13200 Superior Ct, Manassas, VA 20112",https://www.mbwhoa.org/page/42319~920697/community-pool-and-swim-team,38.6678788,-77.4347476,Pending,,20112,Manassas
Mi Catedral De La Fe,Info@micatedraldelafe.org,571-393-3525,"8306 Rugby Ct, Manassas, VA 20111",http://micatedraldelafe.org/,38.789078,-77.4523168,Pending,,20111,Manassas
Mision Cristiana Elim de Virginia,,703 - 257 - 5248,"7555 Centreville Rd, Manassas, VA 20111",https://www.misionelimva.com/,38.7914322,-77.4471438,Pending,,20111,Manassas
Mountaintop Church,INFO@MOUNTAINTOPCHURCH.ORG ,(703) 544-9292,"10501 Balls Ford Rd, Manassas, VA 20109",https://www.mountaintopchurch.org/,38.7998713,-77.5111494,Pending,,20109,Manassas
NAACP,religiousaffairs@pwnaacp.org,(703)475-0736,"P.O. Box 499 Manassas, VA 20108-0449",www.pwnaacp.org,38.7512726,-77.4706769,Pending,,20108,Manassas
National Counseling Group,dpatel@traumaandhope.com,(703) 257-5997,"9301 Forest Point Circle, Manassas, VA 20110",National Counseling Group | Virginia (ncgcommunity.com),38.7658974,-77.4787655,Pending,,20110,Manassas
New Birth Community Church,nbcc.clerk.events@newbirthcc.com,703-656-8067,"9950 Wellington Rd, Manassas, VA 20110",https://www.newbirthcc.com/,38.7423912,-77.4628109,Pending,,20110,Manassas
Northern Virginia Family Service (NVFS) Serve Campus Family Shelter,info@nvfs.org,571-444-6664,"10054 Dean Drive, Manassas, VA 20110",https://www.nvfs.org/our-services/homelessness-housing/serve-campus/,38.7447792,-77.4998082,Pending,,20110,Manassas
Novant Behavioral Health,,(703)369-8055,"8680 Hospital Way, Manassas, VA 20110",https://www.novanthealth.org/services/mental-health/,38.7664873,-77.4889561,Pending,,20110,Manassas
Novant Health UVA Health System Prince William Medical Center\,,571-833-2245,"8700 Sudley Rd, Manassas, VA 20110",https://uvahealth.com/locations/UVA-Health-Prince-William-Medical-Center-5597282,38.7677717,-77.4881219,Pending,,20110,Manassas
Office of the Commonwealth's Attorney,tthomas@pwcgov.org,(703)792-8220,"9311 Lee Avenue, Suite 200, Manassas, VA 20110",,38.7514307,-77.4789209,Pending,,20110,Manassas
Parent Resource Center,HollebAJ@pwcs.edu, (703) 791-8846 or (703) 791-7438,"14715 Bristow Road, Manassas, VA 20112",https://www.pwcs.edu/academics___programs/special_education/parent_resource_center/index,38.6365571,-77.4347368,Pending,,20112,Manassas
Parent Resource Center Workshop PWC,ContreEM@pwcs.edu, (703) 791-7935,"Kelly Leadership Center, Second Floor, Suite 2200, 14715 Bristow Rd., Manassas, VA 20112",https://www.pwcs.edu/academics___programs/special_education/parent_resource_center/index,38.63661,-77.4348102,Pending,,20112,Manassas
Parkland Immanuel Church of God,parklandimmanuelcog7@yahoo.com,571-359-5148,"8709 Parkland St, Manassas, VA 20111, USA
",https://parklandimmanuelco.wixsite.com/website,38.7925295,-77.4605274,Pending,,20111,Manassas
Paul B.Ebert Law Library,CircuitCourt@pwcgov.org,703-792-6262,"9311 Lee Avenue 3rd Floor, Room 304, Manassas, VA 20110",,38.7514307,-77.4789209,Pending,,20110,Manassas
Portuguese American Leadership Council of the United States (PALCUS),palcus@palcus.org,202-466-4664,"9255 Center St., Suite 102 - Manassas, VA 20110, USA",http://www.palcus.org,38.7504254,-77.4758264,Pending,,20110,Manassas
Prince of Peace Church,princeofpeacechurch@aol.com,571-402-7265,"13480 Dumfries Rd, Manassas, VA 20112",http://www.theprinceofpeacechurch.com/,38.6601525,-77.4416293,Pending,,20112,Manassas
"Prince of Peace United Methodist Church
",genniebowles@vaumc.org,703-670-4143 / (540) 649-1216,"6299 Token Forest Dr, Manassas, VA 20112",https://www.popumc.org/,38.6746655,-77.3942973,Pending,,20112,Manassas
Prince William Chamber of Commerce,info@pwchamber.org,703-368-6600,"9733 Buchanan Loop Manassas, VA 20110",https://pwchamber.org/,38.740528,-77.512973,Pending,,20110,Manassas
"Prince William County Animal Shelter,",animalshelter@pwcgov.org,703.792.6465,"14807 Bristow Road, Manassas, VA 20112",https://pwspca.org/food/,38.6347959,-77.4306112,Pending,,20112,Manassas
Prince William County Justice System,OCJSContact@pwcgov.org,MANASSAS: (703) 792-6065,"9540 Center Street, Suite 301, Manassas, VA 20110",https://www.pwcva.gov/department/criminal-justice-services/domestic-violence-help-services,38.7527034,-77.483708,Pending,,20110,Manassas
Prince William County Police - School Resource Officer Unit,skhalid@pwcgov.org,(571) 343-0101,"Western District Station, 8900 Freedom Center Blvd. Manassas, VA 20110",,38.7629772,-77.5165311,Pending,,20110,Manassas
Prince William County Police Department - Community Liason Office,rharris@pwcgov.org,(703)792-7231,"Western District Station 8900 Freedom Center Boulevard, Manassas, VA 20110",,38.7629772,-77.5165311,Pending,,20110,Manassas
Prince William County Public Safety Resilience Center ,vtaylor@pwcgov.org,"(703)792-4935, (571)373-6241","7762 Donegan Dr., Manassas, VA 20109",,38.7896657,-77.5179198,Pending,,20109,Manassas
Prince William County Public Schools,,703-791-7200,"14715 Bristow Rd., Manassas, Virginia 20112",https://www.pwcs.edu/departments/student_services/,38.6365571,-77.4347368,Pending,,20112,Manassas
Prince William Family Counseling ,inquiry@wtg-pwfc.hush.com,(703)330-9933,"8140 Ashton Ave Suite 200, Manassas, VA 20109",https://woodbridgetherapygroup.com/,38.7811685,-77.5171933,Pending,,20109,Manassas
Prince William Islamic Center,,(703) 330-3556,"9002 Mathis Ave, Manassas, VA 20110",http://pwicva.org/,38.759851,-77.465797,Pending,,20110,Manassas
Prince William Senior Centers -- Manassas Senior Center,,(703) 792-6405,"9320 Mosby Street, Manassas, Virginia, 20110",https://www.pwcva.gov/department/area-agency-aging/senior-centers,38.7535316,-77.4803867,Pending,,20110,Manassas
Project Mend-A-House,support@pmah.org,(703) 792-7663,"8787 Commerce Ct, Manassas, VA 20110",https://pmah.org/,38.7593916,-77.4593401,Pending,,20110,Manassas
PWC OAR NOVA (Re-entry Program from Jail),info@oarnova.org,(703) 246 – 3033,"9319 Mosby Street, Manassas, VA 20110",https://oarnova.org/services/prince-william-county/,38.7530983,-77.4785469,Pending,,20110,Manassas
PWCS Global Welcome Center: Manassas Campus,GWCRegistration@pwcs.edu,(571) 402-3800,"10100 Lomond Dr., Manassas, VA 20109",https://www.pwcs.edu/departments/global_welcome_ center/index,38.7848225,-77.501442,Pending,,20109,Manassas
Quest Church ,,,"11380 Bulloch Dr, Manassas, VA 20109",,38.8023009,-77.530067,Pending,,20109,Manassas
Reconciliation Community Church,info@rccnova.org,703-791-3499,"14654 Joplin Rd, Manassas, VA 20112",http://www.rccnova.org/,38.6351054,-77.4403412,Pending,,20112,Manassas
Recovery and Wellness,,703-546-1834,"9309 Center Street,  Suite 101, Manassas, VA 20110",https://www.catalystwellness.com/,38.7500788,-77.4783084,Pending,,20110,Manassas
Reformed Presbyterian Church,Pastor@rpchurchmanassas.org,703-565-7405,"9400 Fairview Ave, Manassas, VA 20110",http://rpchurchmanassas.org/drupal/Home,38.7513116,-77.4666567,Pending,,20110,Manassas
Remanente Church,,(703) 615-3113,"10519 Battleview Pkwy, Manassas, VA 20109",,38.8050994,-77.5177154,Pending,,20109,Manassas
"River of Grace Lutheran Church, ELCA",,703-680-1058,"15012 Dumfries Rd, Manassas, VA 20112",http://rognova.com/,38.6264426,-77.40989,Pending,,20112,Manassas
River of Life Pentecostal Church,,(703) 361-7390,"8216 Birch St, Manassas, VA 20111",http://myfphc.org/,38.7803399,-77.448146,Pending,,20111,Manassas
Rock of Israel Church ,,,"8209 Centreville Rd, Manassas, VA 20111",https://www.facebook.com/rockofisraelchurch/,38.7779655,-77.4506454,Pending,,20111,Manassas
Sacred Heart Catholic Church,,703-590-0030,"12975 Purcell Rd, Manassas, VA 20112",https://www.sacredheartmanassas.org/,38.675147,-77.3971519,Pending,,20112,Manassas
Second Irongate Community Association,secondirongate@aol.com,(703) 361-3481,"8300 Community Dr, Manassas, VA 20109",http://www.secondirongate.com/,38.7761345,-77.49853,Pending,,20109,Manassas
Serving Our Neighbors Mobile Drop-in Center -- Manassas Presbyterian Church,office@mpc-va.org,703-369-2058,"8201 Ashton Avenue, Manassas, Virginia 20109",https://www.mpc-va.org/mission.html,38.7804394,-77.5147697,Pending,,20109,Manassas
Sion Asamblea Cristiana,office.va@sionac.org,571-238-9557,"9518 Prince William St, Manassas, VA 20110",http://sionac.org/,38.7480101,-77.4856566,Pending,,20110,Manassas
"Spriggs Road Presbyterian Church
",SRPC@SpriggsRoad.org,(703) 791-5555,"13201 Spriggs Rd, Manassas, VA 20112",http://www.spriggsroad.org/,38.6679001,-77.4014124,Pending,,20112,Manassas
St. Mark's United Methodist Church,,(703) 368-5790,"7803 Well St, Manassas, VA 20111",,38.7866424,-77.4499602,Pending,,20111,Manassas
St. Mary's Byzantine Catholic Church,,(301) 421-1739,"6719 Token Valley Rd, Manassas, VA 20112",https://www.stmarysbyz.com/,38.6636068,-77.405006,Pending,,20112,Manassas
St. Thomas United Methodist Church,receptionist@stthomasumc.org,703 368-5161,"8899 Sudley Road, Manassas, VA 20110",https://www.stthomasumc.org/,38.7638239,-77.4784429,Pending,,20110,Manassas
Sudley United Methodist Church,pastor@sudley-methodist.org,703-754-4380,"5308 Sudley Rd, Manassas, VA 20109",http://www.sudley-methodist.org/,38.8406083,-77.5381369,Pending,,20109,Manassas
Tabernacle Baptist Church,admin@tbcmanassas.org,703-368-8610,"8275 Barrett Dr, Manassas, VA 20109",http://www.tbcmanassas.org/,38.776676,-77.4962025,Pending,,20109,Manassas
Taqwa Islamic Center,,Cannot find,"10441 Balls Ford Rd, Manassas, VA 20109",,38.8007977,-77.508575,Pending,,20109,Manassas
The Love Church,info@welovechurch.com,703.330.0881,"11234 Balls Ford Rd, Manassas, VA 20109",https://welovechurch.com/,38.797185,-77.5321541,Pending,,20109,Manassas
The Prince William - Manassas Regional Adult Detention Center,adc@pwcgov.org,(703)792-6420,"9320 Lee Ave., Manassas, VA 20110",https://www.pwcva.gov/department/adult-detention-center,38.7519901,-77.4799665,Pending,,20110,Manassas
The Robert Day Childcare Center,dshipman@arcgpw.org,(703) 670-5060,"9208 Centreville Rd, Manassas, VA 20110",https://arcgpw.org/childcare-services/,38.7548104,-77.4671721,Pending,,20110,Manassas
The Rock Church of Manassas,info@rockchurchmanassas.org,571-551-6049,"10800 Vandor Ln, Manassas, VA 20109",https://www.rockchurchmanassas.org/,38.8027792,-77.5177811,Pending,,20109,Manassas
The Salvation Army Thrift Store & Donation Center,NorthernARC@uss.salvationarmy.org,703-686-4607,"11201 Balls Ford Road, Manassas, VA, 20109",https://satruck.org/,38.7961962,-77.5285818,Pending,,20109,Manassas
The Universal Church,ask@universalusa.org,888-332-4141,"8281 Centreville Rd, Manassas, VA 20111",https://www.universal.org/usa/,38.7770963,-77.4507892,Pending,,20111,Manassas
Trauma and Hope,,(703) 750-7852,"9028 Prince William St, Unit E, Manassas, VA 20110",Outpatient Mental Health Treatment | Northern Virginia | Springfield VA (traumaandhope.com),38.7502061,-77.4704665,Pending,,20110,Manassas
Trinity Episcopal Church,info@trinityepiscopalchurch.org,(703) 368-4231,"9325 West St, Manassas, VA 20110",https://www.trinityepiscopalchurch.org/,38.752143,-77.473254,Pending,,20110,Manassas
Victory Fellowship CGP,info@victory-fellowship.net,(703) 335-7705,"9608 Fairview Ave, Manassas, VA 20110",http://www.victory-fellowship.net/,38.7464552,-77.4626358,Pending,,20110,Manassas
Virginia Cooperative Extension,smartmoney@pwcgov.org,,"8033 Ashton Avenue, Suite 105, Manassas, VA 20109 ",https://www.pwcva.gov/department/virginia-cooperative-extension/financial-empowerment-center,38.7885886,-77.5197251,Pending,,20109,Manassas
Virginia Department of Veteran Affairs ,,(703) 479-7437,"9300 West Courthouse Road, Suite 305, Manassas, Virginia 20110",,38.7526749,-77.4826566,Pending,,20110,Manassas
Virginia Health Insurance Counselling and Assistance Program (VICAP) -- Manassas City Department of Family Services,,(703) 361-8277,"9324 West Street, Manassas, VA 20110",https://www.pwcva.gov/department/area-agency-aging/medicaid,38.7519552,-77.4748714,Pending,,20110,Manassas
Virginia Health Insurance Counselling and Assistance Program (VICAP) -- Prince William County Department of Social Services,,(703) 792-7500,"7987 Ashton Ave., Suite 200, Manassas, VA 20109",https://www.pwcva.gov/department/area-agency-aging/medicaid,38.7883026,-77.5192123,Pending,,20109,Manassas
Virginia Korean SDA Church,info@vasda.org,703-563-7465,"12351 Dumfries Rd, Manassas, VA 20112",http://vasda.org/web/,38.6850053,-77.440545,Pending,,20112,Manassas
Virginia Tech Cooperative Extension of Greater Prince William,,703-792-6289,"8033 Ashton Avenue, Suite 105, Manassas, Virginia 20109",https://prince-william.ext.vt.edu/programs.html,38.7885886,-77.5197251,Pending,,20109,Manassas
Volunteer Prince William,,703-369-5292,"9248 Center Street Manassas, VA 20110",http://www.volunteerprincewilliam.org/,38.7510368,-77.4756831,Pending,,20110,Manassas
Westover Baptist Church Sbc,,(703) 368-0826,"10301 Sudley Manor Dr, Manassas, VA 20109",https://www.facebook.com/pages/Westover-Baptist-Church-SBC/120557651289256,38.7888563,-77.5045901,Pending,,20109,Manassas
"Women, Infnats, and Childeren (WIC) -- Manassas Office",PWHDWIC@vdh.virginia.gov ,(703) 792-7319,"9430 Forestwood Lane, Suite 201, Manassas, VA 20110",https://www.vdh.virginia.gov/prince-william/wic/,38.7666167,-77.4781699,Pending,,20110,Manassas
Woodbine Church,woodbinechurch@comcast.net,(571) 399-7159 ,"12914 Canova Dr, Manassas, VA 20112",http://www.thewoodbinechurch.com/,38.6732977,-77.4416911,Pending,,20112,Manassas
Word Alive Church International,info@thewordisalive.com,703.369.6770,"8517 Rixlew Ln, Manassas, VA 20109",http://thewordisalive.com/,38.7727375,-77.5008915,Pending,,20109,Manassas
City of Manassas Park,d.jackson@manassasparkva.gov,(703)335-8803,"1 Park Center Court, Manassas Park, VA 20111",www.manassasparkva.gov,38.7674138,-77.4410636,Pending,,20111,Manassas Park
First Bible Baptist Church,michelle.turner@fbbcva.org,703-330-3222,"206 Manassas Dr, Manassas Park, VA 20111",http://fbbcva.org/,38.780044,-77.4618696,Pending,,20111,Manassas Park
Manassas Park Community Center,,(703) 335-8872,"99 Adams St, Manassas Park, VA 20111",https://www.manassasparkcommunitycenter.com/,38.7839326,-77.4619509,Pending,,20111,Manassas Park
Mason and Partners (MAP) Clinic,mapclinic@gmu.edu,703-993-5880; MAT Bridge: 703-539-2951 (Wed clinic),"99 Tremont St, Manassas Park, VA 20111",,38.7834623,-77.465682,Pending,,20111,Manassas Park
Ministerio International Roca De Salvacion Apostoles y Profetas,,(703) 257-4039,"137 Colfax Dr, Manassas Park, VA 20111",,38.7869833,-77.4726426,Pending,,20111,Manassas Park
Repentance By Faith Church-God,,(703) 330-8926,"7907 Rugby Rd, Manassas Park, VA 20111",,38.7881978,-77.4376285,Pending,,20111,Manassas Park
Third Dimension Institute,,,"256 Kirby St, Manassas Park, Virginia, 20111",,38.7753346,-77.4628693,Pending,,20111,Manassas Park
Virginia Health Insurance Counselling and Assistance Program (VICAP) -- Manassas Park Department of Social Services,,(703) 335-8880,"City Hall, 1 Park Center Court, Manassas Park, VA, 20111",https://www.pwcva.gov/department/area-agency-aging/medicaid,38.7674138,-77.4410636,Pending,,20111,Manassas Park
Bethel A.M.E. Church,revmelyndaclarke@gmail.com,(571) 285-4170,"4371 Kevin Walker Dr, Montclair, VA 22025",www.bethelofwoodbridge.org,38.6031181,-77.3413993,Pending,,22025,Montclair
Montclair Library,,703-792-8740,"5049 Waterway Dr, Montclair, VA 22025
",www.pwcva.gov/library,38.6101832,-77.3570669,Pending,,22025,Montclair
Church of the Brethren,nokesvillecob@nokesvillecob.org,(703) 594-2685,"13002 Fitzwater Dr, Nokesville, VA 20181",http://nokesvillecob.org/,38.7001034,-77.5822074,Pending,,20181,Nokesville
Colchester Baptist Church,ColchesterChurch@gmail.com,703-594-2887,"10405 Schaeffer Ln, Nokesville, VA 20181",http://colchesterfreewillbaptistchurch.org/,38.7276919,-77.5697553,Pending,,20181,Nokesville
Greenwich Presbyterian Church,info@greenwichpres.org,703-754-7933,"15305 Vint Hill Rd, Nokesville, VA 20181",http://greenwichpres.org/,38.7490222,-77.6477063,Pending,,20181,Nokesville
Monterey Church,bryan@monterey.church,(540) 347-3630,"10504 Kettle Run Rd, Nokesville, VA 20181",https://www.monterey.church/virginia,38.7261623,-77.5802189,Pending,,20181,Nokesville
Nokesville Library,,703-792-5665,"12993 Fitzwater Dr, Nokesville, VA 20181
",www.pwcva.gov/library,38.6993179,-77.5822372,Pending,,20181,Nokesville
Nokesville United Methodist Church,secretary@nokesvilleumc.comcastbiz.net,703-594-2141,"12508 Aden Rd, Nokesville, VA 20181",https://www.nokesvilleumc.com/,38.6840351,-77.5752256,Pending,,20181,Nokesville
The Chris Atwood Foundation,info@thecaf.org,703.653.4221,"PO Box 9282 Reston, Virginia 20195",https://www.thecaf.org/,38.9475624,-77.3295728,Pending,,20195,Reston
Regional Education Assessment Crisis Services Habilitation (REACH) Program ,,(804) 786-3921,"P.O. Box 1797, Richmond, VA 23218","https://dbhds.virginia.gov/developmental-services/Crisis-services/#:~:text=The%20REACH%20program%20is%20the%20statewide%20crisis%20system,incarceration%2C%20hospitalization%2C%20and%2For%20danger%20to%20self%20or%20others.",37.56,-77.45,Pending,,23218,Richmond
The Innovation in Child and Family Wellness Research Group,,(804) 828-1692,"Academic Learning Commons 1000 Floyd Avenue, 4th Floor Box 842027, Richmond, VA 23284-2027",https://innovativewellness.vcu.edu/,37.5474207,-77.4544017,Pending,,23284,Richmond
Virginia Department of Medical Assistance Services,,804-786-6273,"600 East Broad Street, Richmond, Virginia. 23219",https://www.dmas.virginia.gov/#/index,37.5424413,-77.4360968,Pending,,23219,Richmond
Virginia Foundation for Healthy Youth (VFHY),,(804) 786-2523,"701 East Franklin Street, Suite 500, Richmond, VA 23219",https://www.vfhy.org/events/,37.5399325,-77.4371393,Pending,,23219,Richmond
Virginia Mental Health Access Program (VMAP),,888-371-8627,"2924 Emerywood Pkwy, Richmond VA 23294",https://vmap.org/,37.6105292,-77.5220163,Pending,,23294,Richmond
Virginia Values Veterans,,(804) 786-0286,"101 N. 14th Street, Richmond, VA 23219",https://www.dvs.virginia.gov/employment-transition/virginia-values-veterans-v3-program,37.5365163,-77.4301232,Pending,,23219,Richmond
Child Trends,,(240) 223-9200,12300 Twinbrook Parkway Suite 235 Rockville MD 20852,https://www.childtrends.org/about-us,39.0590957,-77.1201244,Pending,,20852,Rockville
Substance Abuse and Mental Services Administration (SAMHSA),,877-726-4727,"5600 Fishers Lane, Rockville, MD 20857",https://www.samhsa.gov/find-help/helplines/national-helpline,39.0625608,-77.1126054,Pending,,20857,Rockville
Easter Seals,,(301) 588-8700,"1420 Spring Street, Silver Spring, MD 20910",https://www.easterseals.com/DCMDVA/programs-and-services/military-veteran-services/,38.9978178,-77.0338227,Pending,,20910,Silver Spring
The Metropolitan Washington Ear,,301-681-6636,"12061 Tech Road, Silver Spring, MD 20904",https://washear.org/,39.0522028,-76.9685977,Pending,,20904,Silver Spring
Restorative Dental Clinic of Northern Virginia Community College,,(703) 822-6607,"6699 Springfield Center Drive Springfield, VA 22150",https://www.nvcc.edu/dental/,38.7640714,-77.1757055,Pending,,22150,Springfield
Bible Way Apostolic Church,,(703) 441-0404,"18516 Triangle St, Triangle, VA 22172",,38.5502872,-77.3331828,Pending,,22172,Triangle
Concordia Lutheran Church,,(703) 221-3703,"3637 Graham Park Rd, Triangle, VA 22172",www.concordialutheranva.org,38.5562499,-77.3242034,Pending,,22172,Triangle
First Assembly of God,,(703) 221-3911,"4212 Inn St, Triangle, VA 22172",www.firstassemblytriangle.org,38.5471881,-77.3377034,Pending,,22172,Triangle
God's Living Word Greater Apostolic Temple,,(703) 338-2816,"4070 Squire Ln, Triangle, VA 22172",www.godslivingwordchurch.org,38.5489925,-77.3338377,Pending,,22172,Triangle
Greater New Life Church,,571-606-9543,"4208 Inn St, Triangle, VA 22172",http://www.gnlcf-va.com/,38.5470845,-77.3374901,Pending,,22172,Triangle
Mount Zion Baptist Church,,(703) 221-6960,"18410 Chapel St, Triangle, VA 22172",www.mtzbaptist.org,38.5532507,-77.3533102,Pending,,22172,Triangle
St. Francis of Assisi Catholic Church,,(703) 221-4044,"18825 Fuller Heights Rd, Triangle, VA 22172",www.stfrncis.org,38.5441045,-77.3270581,Pending,,22172,Triangle
Star Bethlehem,,(703) 221-3888,"19068 Bethlehem Church Rd, Triangle, VA 22172",www.starbethlehem.org,38.5383332,-77.3241415,Pending,,22172,Triangle
The Vocational and Skill Advancement Center (VOSAC) -- Adult Day Support Services,cnicol@arcgpw.org,(703) 221-8787,"19143 Fuller Heights Road, Triangle, Virginia 22172",https://arcgpw.org/adult-day-support-services/,38.5353894,-77.3208398,Pending,,22172,Triangle
Triangle Baptist Church,,(703) 221-7191,"1724, 4345 Inn St, Triangle, VA 22172",www.trianglebaptistchurch.org,38.5545472,-77.3401397,Pending,,22172,Triangle
The Women's Center,,(703) 281-2657,"8230 Old Courthouse Road, Suite 500, Vienna, VA 22182",https://thewomenscenter.org/,38.9136956,-77.229613,Pending,,22182,Vienna
Training Futures Workforce Development Center ,tftrainee@nvfs.org,571-748-2869,"8603 Westwood Center Drive, Suite 300, Vienna, VA 22182",https://www.nvfs.org/our-services/workforce-development/training-futures/,38.9289457,-77.2445122,Pending,,22182,Vienna
Vineyard Community Church,," 757-424-4444
(703) 222-7654"," 4444 Expressway Drive, Virginia Beach, VA 23452",,36.8319426,-76.129681,Pending,,23452,Virginia Beach
Battlefield Baptist Church,info@battlefieldbaptist.org,540-347-5855,"4361 Lee Hwy, Warrenton, VA 20187",http://battlefieldbaptist.org/contact,38.773651,-77.6897588,Pending,,20187,Warrenton
Friendship Place -- Housing,info@friendshipplace.org,202-364-1419,"4713 Wisconsin Ave NW, Washington DC 20016",https://friendshipplace.org/programs-outreach/housing/,38.9513066,-77.0807303,Pending,,20016,Washington DC
Friendship Place -- Veterans First,vfscreen@friendshipplace.org,202-364-1419,"4713 Wisconsin Ave NW, Washington DC 20016",https://friendshipplace.org/programs-outreach/veterans-first/,38.9513066,-77.0807303,Pending,,20016,Washington DC
League of Women Voters ,,202-429-1965,"1233 20th Street NW, Suite 500, Washington, DC, 20036",https://www.lwv.org,38.9066761,-77.0445231,Pending,,20036,Washington DC
Responsibility -- Eliminate Underage Drinking,,202-637-0077,"101 Constitution Avenue, NW, Suite 375 East, Washington, DC 20001",https://www.responsibility.org/prevent-underage-drinking/,38.8928495,-77.0129944,Pending,,20001,Washington DC
The American Academy of Child and Adolescent Psychiatry,,202.966.7300,"3615 Wisconsin Avenue, N.W., Washington, D.C. 20016-3007",https://www.aacap.org/Shared_Content/AACAP_Sign_In.aspx?WebsiteKey=a2785385-0ccf-4047-b76a-64b4094ae07f&LoginRedirect=true&returnurl=%2fAACAP%2fFamilies_and_Youth%2fFamily_Resources%2fHome.aspx,38.9380364,-77.0738,Pending,,20016,Washington DC
Abundant Life Church,,(703)364-9580,"12964 Harbor Dr, Woodbridge, VA 22192",www.woodbridge.church,38.6740278,-77.2808458,Pending,,22192,Woodbridge
Abundant Life Ministries Inc.,DrEllis@abundant-lifeministries.com,,"PO Box 1878, Woodbridge, VA  22195",www.abundant-lifeministries.com,38.6506141,-77.3130851,Pending,,22195,Woodbridge
Adult Day Healthcare,pwaaa@pwcgov.org,703-792-4990,"Dr. A.J. Ferlazzo Building, 15941 Donald Curtis Drive, Woodbridge, VA, 22191",https://www.pwcva.gov/department/area-agency-aging/adult-day-care,38.6082405,-77.2955553,Pending,,22191,Woodbridge
All Saints' Church,office@allsaintswoodbridge.org,(703) 670-0093,"14851 Gideon Dr, Woodbridge, VA 22192",www.allsaintswoodbridge.org,38.6299847,-77.3007833,Pending,,22192,Woodbridge
Arc of Greater Prince William -- Recreational Services,jocetnik@arcgpw.org,703-670-4800,"13505 Hillendale Drive, Woodbridge, VA 22193",https://arcgpw.org/recreational-services/,38.6570966,-77.3399577,Pending,,22193,Woodbridge
Arc of Greater Prince William -- Residential Services,ksmith@arcgpw.org,703-670-4800,"13505 Hillendale Drive, Woodbridge, VA 22193",https://arcgpw.org/residential-services/,38.6570966,-77.3399577,Pending,,22193,Woodbridge
Area Agency on Aging,,703-792-6374,"1 County Complex Ct., Prince William, VA 22192",https://www.pwcva.gov/department/area-agency-aging/veterans-assistance,38.6797908,-77.3521338,Pending,,22192,Woodbridge
Area Agency on Aging (PWC),pwaaa@pwcgov.org,(703) 792-6374,"5 County Complex Court, Suite 240, Prince William, VA, 22192",https://www.pwcva.gov/department/area-agency-aging,38.6806551,-77.3514641,Pending,,22192,Woodbridge
B Well Biblical Soulcare ,BrendaBuckner@bwellsoulcare.com,571-264-6723,"1942 Heatherbrook Ct, Woodbridge, VA 22192",www.bwellsoulcare.com,38.6782823,-77.2729875,Pending,,22192,Woodbridge
Bethel Free Will Baptist Church,jlane@bfwbc.com,(703) 590-5199,"3713 Pennington Ln, Woodbridge, VA 22192",http://bfwbc.com/,38.6620861,-77.3244323,Pending,,22192,Woodbridge
Bethel United Methodist Church,secretary@bethelumc.org,(703) 670-4929,"13506 Minnieville Rd, Woodbridge, VA 22192",www.bethelumc.org,38.6557017,-77.3083321,Pending,,22192,Woodbridge
"Bill Mehr Drop-In Center for the Homeless, Shelter",,(703) 792-7648,"14716 Potomac Mills Road in Woodbridge, VA",https://www.facebook.com/MehrDropInCenter,38.630767,-77.2949524,Pending,,22192,Woodbridge
Birthright,,703-583-1178,"4207 Dale Boulevard, Woodbridge VA 22193",https://www.birthrightofwoodbridge.org/services,38.6438577,-77.3378564,Pending,,22193,Woodbridge
Birthright of Woodbridge,,800-550-4900,"4207 Dale Boulevard, Woodbridge VA 22193",https://www.birthrightofwoodbridge.org/services,38.6438577,-77.3378564,Pending,,22193,Woodbridge
Boys and Girls Club (Hylton Club),operations@bgcgw.org,(703) 670-3311,"5070 Dale Boulevard, Woodbridge, VA 22193",https://bgcgw.org/clubs/hylton-club/,38.6609425,-77.3605464,Pending,,22193,Woodbridge
Bridges of Love International,,,"12801 Darby Brook Ct #202, Woodbridge, VA 22192",http://www.bridgeofloveintl.org/about-us.php,38.6753557,-77.2642901,Pending,,22192,Woodbridge
BrightView,,888-501-9865,"4899 Prince William Parkway, Woodbridge, VA 22192",www.brightviewhealth.com,38.6781499,-77.3550099,Pending,,22192,Woodbridge
Calvary Baptist Church,office@CBC-woodbridge.org,(703) 670-7217,"15880 Crest Dr, Woodbridge, VA 22191",www.cbc-woodbridge.org,38.6068727,-77.3003457,Pending,,22191,Woodbridge
CASA,,571.421.2211,"2359 Research Ct, Woodbridge, VA 22192",https://wearecasa.org/virginia/,38.6507109,-77.2843751,Pending,,22192,Woodbridge
Casa de Dios,discipulos6@yahoo.com,(571) 991-5508,"3713 Pennington Lane, Woodbridge, VA 22192",http://bfwbc.com/casa-de-dios/,38.6620861,-77.3244323,Pending,,22192,Woodbridge
"Central Baptist Church, Woodbridge, VA",info@cbcwoodbridge.org,(703) 583-1717,"13910 Minnieville Rd, Woodbridge, VA 22193",http://cbcwoodbridge.org/,38.6514084,-77.3258686,Pending,,22193,Woodbridge
Centro Vida Iglesia Pentecostal Unida Internacional,,(571) 921-0310,"1646 Woodside Dr, Woodbridge, VA 22191",,38.6382215,-77.2674309,Pending,,22191,Woodbridge
Chinn Aquatics & Fitness Center,kfish@pwcgov.org,703-792-8600,"13025 Chinn Park Dr, Woodbridge, VA 22192",http://www.pwcgov.org/government/dept/park/chinn/pages/default.aspx,38.6702546,-77.3320643,Pending,,22192,Woodbridge
Chinn Park Library,,703-792-4800,"13065 Chinn Park Dr, Woodbridge, VA 22192
",www.pwcva.gov/library,38.6703104,-77.3332354,Pending,,22192,Woodbridge
Christ Chapel Church,connections@christchapel.org,703-670-8481,"13909 Smoketown Road Woodbridge, VA 22192",https://christchapel.org/,38.646699,-77.3001325,Pending,,22192,Woodbridge
CHRIST New Birth Ministries,,(703) 594-4341,"4421 Dale Blvd, Woodbridge, VA 22193",,38.6492082,-77.3422864,Pending,,22193,Woodbridge
Church of Christ of Woodbridge,Preacher@WoodbridgeChurchOfChrist.com,(703) 494 - 5721,"13815 Surrey Drive; Woodbridge, Va. 22191",http://www.woodbridgechurchofchrist.com/,38.6527298,-77.2717336,Pending,,22191,Woodbridge
Church of God-Trinity Temple,,(703) 494-1660,"13403 Baxter St, Woodbridge, VA 22191",,38.6620132,-77.2616631,Pending,,22191,Woodbridge
Church of the Nazarene,,(703) 670-2252,"14001 Smoketown Rd, Woodbridge, VA 22192",www.woodbridgenaz.com,38.6449449,-77.3010017,Pending,,22192,Woodbridge
City Light Church,,(703) 828-4817,"13215 Minnieville Rd, Woodbridge, VA 22192",www.citylightchurch.us,38.6613353,-77.2937431,Pending,,22192,Woodbridge
Comfort Kare,info@comfortkservice.com,703-986-3232,"1376 Old Bridge Rd Suite 101, Woodbridge, VA 22192",,38.6748209,-77.2579626,Pending,,22192,Woodbridge
Community Services -- Crisis Receiving Center Complex,,,"14011 Worth Avenue, Woodbridge, VA 22191",,38.6476856,-77.2939772,Pending,,22191,Woodbridge
Community Services -- Ferlazzon Building,emailcsb@pwcgov.org,(703) 792-5241 (TTY 711); Same Day Access: (703) 792-7373,"15941 Donald Curtis Drive, Suite 200, Woodbridge, VA 22191",,38.6082438,-77.2954709,Pending,,22191,Woodbridge
Covenant Presbyterian Church,cpc@covenantpresbyterianchurch.us,703-583-4090,"12700 Black Forest Ln, Woodbridge, VA 22192",http://www.covenantpresbyterianchurch.us/,38.6770902,-77.3483942,Pending,,22192,Woodbridge
"Cristo Es La Respuesta
",,(571) 659-0438,"13800 Delaney Rd, Woodbridge, VA 22193",,38.6558586,-77.3531164,Pending,,22193,Woodbridge
Crossroads Presbyterian Church,,(703) 794-9431,"15557 Cardinal Dr, Woodbridge, VA 22193",www.crossroadspca.net,38.6156776,-77.3163874,Pending,,22193,Woodbridge
D R Horton Rippon Community Center,,(703) 580-1099,"15415 Elizabeth Burbage Loop, Woodbridge, VA 22191",https://www.drhorton.com/,38.6167863,-77.2810865,Pending,,22191,Woodbridge
Dale City Baptist Church,dcbchurch@gmail.com,703-670-8118,"3501 Dale Blvd, Woodbridge, VA 22193",www.dalecitybaptist.org,38.6295898,-77.3171439,Pending,,22193,Woodbridge
Dale City Christian Church,dccccofpraise@aol.com,703-590-3716,"14022 Lindendale Rd, Woodbridge, VA 22193",http://www.dccccofpraise.org/,38.6485328,-77.359983,Pending,,22193,Woodbridge
Dar Al Salaam,,(571) 348-3779,"14505 Richmond Hwy Ste 8, Woodbridge, VA 22191",http://www.daralnoor.org/,38.637275,-77.2683349,Pending,,22191,Woodbridge
Early Head Start Child Development Center -- Nikki’s Christian Daycare & Learning Center,,571.748.2703,"14900 Cloverdale Road, Woodbridge, VA 22193",https://www.nvfs.org/our-services/early-childhood-development/early-head-start/,38.6284651,-77.322987,Pending,,22193,Woodbridge
Early Head Start Child Development Center -- Wonderful Virginia Academy,,571.748.2703,"13420 Minnieville Road, Woodbridge, VA 22192",https://www.nvfs.org/our-services/early-childhood-development/early-head-start/,38.658129,-77.3040132,Pending,,22192,Woodbridge
Ebenezer Presbyterian Church,,(703) 492-7172,"14508 Telegraph Rd, Woodbridge, VA 22192",www.ebenezerpresby.org,38.6399464,-77.291214,Pending,,22192,Woodbridge
Edu-Futuro ,jessikabermudez@edu-futuro.org,"(703) 843-8647, (571) 309-5455","15201 Neabsco Mills Rd., Woodbridge, VA 22191",www.edu-futuro.org,38.6214859,-77.2879242,Pending,,22191,Woodbridge
Elevate ,ELEVATEemployers@vcwnorthern.com,"(703) 324-7709, (571) 585-6172","13770 Minnieville Road, Woodbridge, VA 22192",,38.6535227,-77.3132981,Pending,,22192,Woodbridge
Emergency Services Crisis Intervention Program -- Woodbridge Office,,(703) 792-4900,"1 County Complex Ct., Prince William, VA 22192",https://www.pwcva.gov/department/community-services/crisis-intervention,38.6797908,-77.3521338,Pending,,22192,Woodbridge
Epiphany Lutheran Church,epiphlutheran@hotmail.com,(703)590-4949,"13495 Keytone Rd, Woodbridge, VA 22193",http://www.epiphanychristianchurch.org/,38.6602309,-77.3558425,Pending,,22193,Woodbridge
Equality Prince William,info@equalityprincewilliam.org; dave.epw.pride@gmail.com,,"P.O. Box 6983, Woodbridge, VA 22195-6983",equalityprincewilliam.org,38.658172,-77.249705,Pending,,22195,Woodbridge
Faith Family Ministries International,,(703) 494-0555,"1312 Horner Rd, Woodbridge, VA 22191",,38.6621676,-77.2547922,Pending,,22191,Woodbridge
Family Psychatric Associates,,(730) 897-8970,"4343 A Ridgewood Center Dr, Woodbridge VA",https://familypsychiatricassociates.com/,38.6731271,-77.3395811,Pending,,22192,Woodbridge
First Baptist Church of Woodbridge,,(703) 730-9009,"13600 Minnieville Rd, Woodbridge, VA 22193",www.visitfbcw.org,38.6545495,-77.3138798,Pending,,22193,Woodbridge
"First Home Alliance, Inc. Headquarters",Help@FirstHomeAlliance.org,877-250-9025,"3138 Golansky Blvd, Suite 202, Woodbridge, VA 22192",http://firsthomealliance.org,38.6518429,-77.3060925,Pending,,22192,Woodbridge
First United Presbyterian Church of Dale City,office@fupcdc.org,703.670.7834,"14391 Minnieville Rd, Woodbridge, VA 22193",https://fupcdc.org/,38.6361064,-77.350956,Pending,,22193,Woodbridge
Freedom Community Church,church@freedomcc.net,703.239.3504,"12980 Queen Chapel Rd, Woodbridge, VA 22193",https://findfreedomtoday.org/,38.6738964,-77.3682604,Pending,,22193,Woodbridge
Freedom Fellowship Church,admin@ffcministries.com,703-878-4320,"4320 Dale Blvd, Woodbridge, VA 22193",http://www.ffcministries.com/,38.6479882,-77.3379612,Pending,,22193,Woodbridge
GFWC Woodbridge Woman's Club,woodbridgewomansclub.org@gmail.com,,"P.O. Box 1582 Woodbridge, VA 22193",https://sites.google.com/view/woodbridge-womans-club/,38.6506141,-77.3130851,Pending,,22193,Woodbridge
Good Shepherd Housing Foundation,gshf_admin@goodshepherdhousing.org,(703) 730-1078,"13190 Centerpointe Way, Suite 102, Woodbridge, VA 22193",https://goodshepherdhousing.org/programs/,38.666763,-77.3344539,Pending,,22193,Woodbridge
Good Shepherd Lutheran Church,​info@GoodShepherdWoodbridge.org,(703) 670-6556,"15695 Blackburn Road, Blackburn Rd, Woodbridge, VA 22191",www.goodshepherdwoodbridge.org,38.6115806,-77.2871389,Pending,,22191,Woodbridge
GPW Health Center -- Woodbridge,,(703) 680-7950,"3350 Commission Ct, Woodbridge, VA 22192",https://www.gpwhealthcenter.org/,38.6871474,-77.3137091,Pending,,22192,Woodbridge
"Grace Baptist Church, Woodbridge, Virginia",tperrin@gracehome.org,703-670-5032,"14242 Spriggs Rd, Woodbridge, VA 22193",http://gracehome.org/,38.6452646,-77.3858968,Pending,,22193,Woodbridge
Grace Filipino Church,info@gracefilipinochurch.org,(571) 232-6203,"14242 Spriggs Rd, Woodbridge, VA 22193",http://www.gracefilipinochurch.org/,38.6452646,-77.3858968,Pending,,22193,Woodbridge
Grace Lutheran Church,grace@glcvirginia.org,(703) 494-4600,"1601 Prince William Pkwy, Woodbridge, VA 22191",www.glcvirginia.org,38.650476,-77.2633485,Pending,,22191,Woodbridge
Harvest Life Changers Church,info@harvestlifechangers.com,703-490-4040,"15505 Neabsco Mills Rd, Woodbridge, VA 22191",http://www.harvestlifechangers.com/,38.6154702,-77.2897134,Pending,,22191,Woodbridge
Harvest Life Church,info@harvestlifechangers.com,703-490-4040,"14401 Telegraph Road, Woodbridge, VA 22192",http://harvestlife.org/,38.6404679,-77.2896994,Pending,,22192,Woodbridge
Haskay Community Masjid,haskayassociation@gmail.com,(571) 409-8668,"4229 Dale Blvd, Woodbridge, VA 22193",https://haskay.org/,38.6439334,-77.3378294,Pending,,22193,Woodbridge
Haskay Masjid,haskayassociation@gmail.com,571-409-8668,"4229 Dale Blvd, Woodbridge, VA 22193",https://www.haskay.org/,38.6439334,-77.3378294,Pending,,22193,Woodbridge
Heritage Baptist Church,info@visitheritage.com,(703) 680-6629​,"14510 Spriggs Rd, Woodbridge, VA 22193",https://www.visitheritage.com/,38.6357906,-77.380173,Pending,,22193,Woodbridge
Hilda Barg Shelter & Bill Mehr Drop-In Shelter,francias@stfrncis.org,(703) 221-6344,"15941 Donald Curtis Drive., Woodbridge, VA 22193",https://stfrncis.org/meals-for-the-homeless/,38.6081286,-77.2953813,Pending,,22193,Woodbridge
Hilda M. Barg Homeless Prevention Cente -- Prince William County Department for Social Services,,(703) 792-8810,"14945 Jefferson Davis Highway, Woodbridge, VA 22191",https://www.pwcva.gov/department/social-services/homeless-and-winter-shelters,38.6267119,-77.2749515,Pending,,22191,Woodbridge
Hispanic Organization for Leadership & Action (HOLA),info@hola-usa.org,(405)367-4636,"13905 Richmond Hwy, Woodbridge, VA 22191",https://hola-usa.org,38.6508069,-77.2557001,Pending,,22191,Woodbridge
Holiness Tabernacle - Church of God in Christ,publicrelations@holinesstabernaclecogic.org,703-497-7928,"1440 Old Bridge Road, Woodbridge, VA 22192",https://www.holinesstabernaclecogic.org/,38.6730866,-77.2597074,Pending,,22192,Woodbridge
Holy Family Catholic Church,abenitez@holyfamilydalecity.org,703-670-8161 x301,"14160 Ferndale Rd, Woodbridge, VA 22193",https://holyfamilycatholicchurchdalecity.org/,38.646514,-77.3210556,Pending,,22193,Woodbridge
Hope Aglow Enpowerment Center,wbinfo@hopeaglow.org,(703) 490-4673,"13550 Jefferson Davis Hwy Woodbridge, VA 22191",www.hopeaglow.org,38.6581786,-77.2513815,Pending,,22191,Woodbridge
Hope of Glory Church,christmyhopechurch@gmail.com,202-930-3703,"3985 Prince William Pkwy Suite 205, Woodbridge, VA 22192",https://www.facebook.com/pg/HGCVA/about/?ref=page_internal,38.6648814,-77.3308792,Pending,,22192,Woodbridge
Iglesia Adventista de Woodbridge/Woodbridge Spanish SDA,pastor@woodbridgespanishsda.org,301-526-1281,"13215 Minnieville Rd, Woodbridge, VA 22192",http://woodbridgespanishsda.org/,38.6613353,-77.2937431,Pending,,22192,Woodbridge
Iglesia Amor Y Verdad - Love and Truth Church,Pastor@ltchurchva.org,571-477-2800,"4339 Ridgewood Center Dr, Woodbridge, VA 22192",http://ltchurchva.org/,38.6732461,-77.3398059,Pending,,22192,Woodbridge
Iglesia Bautista Roca Eterna,iglesiabautistarocaeterna@yahoo.com,(703) 670-4045,"3501 Dale Blvd, Woodbridge, VA 22193",http://www.iglesiabautistarocaeterna.org/contactenos,38.6295898,-77.3171439,Pending,,22193,Woodbridge
Iglesia Buena Tierra - Good Ground Church,,(571) 354-7060,"1722 Florida Ave, Woodbridge, VA 22191",,38.6292861,-77.2664843,Pending,,22191,Woodbridge
Iglesia de Cristo Bethel,,(703) 987-8246,"5015 Davis Ford Rd, Woodbridge, VA 22192",,38.6822777,-77.3610156,Pending,,22192,Woodbridge
Iglesia Evangelica Apostoles Y Profetas Vida Eterna,,"(703) 901-1110
","1312 Horner Rd, Woodbridge, VA 22191",,38.66212,-77.2549067,Pending,,22191,Woodbridge
Iglesia Pentecostes Fuente de Salvacion inc.,,(703) 203-4184,"2201 York Dr, Woodbridge, VA 22191",www.ministeriofuentedesalvacion.org,38.650009,-77.2803832,Pending,,22191,Woodbridge
Iglesia Puerta del Cielo,info@laiglesiapdc.com,"
(571) 589-8505","14615 General Washington Dr, Woodbridge, VA 22193",http://ipuertadelcielo.com/,38.6345398,-77.3627204,Pending,,22193,Woodbridge
Image Church,,(571) 931-0025,"13900 Church Hill Drive, Woodbridge, VA, 22191",www.imagechurch.com,38.6490187,-77.2644782,Pending,,22191,Woodbridge
Immanuel Anglican Church,office@iachurch.org,703-494-7621,"1529 Old Bridge Rd # 103, Woodbridge, VA 22192",https://immanuelanglicanchurch.org/,38.6719049,-77.2629801,Pending,,22192,Woodbridge
Inspire Church,,"703-730-7222
(703) 730-7222","15418 Cardinal Dr, Woodbridge, VA 22193",www.inspirechurchva.org,38.6157642,-77.3298685,Pending,,22193,Woodbridge
James Mccoart Admin Bldg. Library,,(703) 792-6000 (building),"1 County Complex Ct, Woodbridge, VA 22192
",www.pwcva.gov/library,38.6797908,-77.3521338,Pending,,22192,Woodbridge
Keep Prince William Beautiful,rfleshman@kprb.org,571-285-3772,"4391 Ridgewood Center Dr suite f, Woodbridge, VA 22192",https://kpwb.org/,38.6740241,-77.3412816,Pending,,22192,Woodbridge
Kindom Fellowship Church,,,"14300 Minnieville Rd., Woodbridge, VA 22193",https://www.thekfchurch.com/,38.6422563,-77.3461102,Pending,,22193,Woodbridge
Kings Light Chapel International,kingslightchapelva@yahoo.com,602-366-5326,"14348 Jefferson Davis Hwy, Woodbridge, VA 22191",http://www.kingslightchapel.org/,38.6407888,-77.2684135,Pending,,22191,Woodbridge
Life Community Church,,(703) 831-1720,"13639 Greenwood Dr, Woodbridge, VA 22193",,38.6531705,-77.3448735,Pending,,22193,Woodbridge
Literacy Volunteers of America,lvapw@lvapw.org,703-670-5702,"2235-C Tackett's Mill Drive, Woodbridge, VA 22192",https://lvapw.org/,38.6752583,-77.2815925,Pending,,22192,Woodbridge
"Long & Foster Prince William Parkway Woodbridge, VA - Realty",,703-986-5700,"12731 Marblestone Drive, Suite 103, Woodbridge, VA 22192",https://www.longandfoster.com/woodbridge-va-realty,38.6764726,-77.3506011,Pending,,22192,Woodbridge
Lutheran Church of the Covenant,office@lcocdalecity.org,(703) 670-4242,"15008 Cloverdale Rd Woodbridge, VA 22193",www.lcocdalecity.org,38.6271417,-77.3230265,Pending,,22193,Woodbridge
Marsh Road Baptist Church,webmaster​@marshroadbaptist.org,(703) 491-2980,"1514 Old Marsh Rd, Woodbridge, VA 22191",http://www.marshroadbc.org/,38.6171392,-77.2584819,Pending,,22191,Woodbridge
Masjid Al-Falah,masjidalfalah@verizon.net,703-490-2220,"14918 Jefferson Davis Hwy, Woodbridge, VA 22191",https://www.masjid-alfalah.com/,38.6289048,-77.2760065,Pending,,22191,Woodbridge
Ministerio De Vida,ministeriodevida@gmail.com,(703) 499-8432,"2610 Omisol Rd, Woodbridge, VA 22192",https://www.facebook.com/pg/MinisterioDeVidaWoodbridge/about/?ref=page_internal,38.6663855,-77.2903327,Pending,,22192,Woodbridge
Ministerio Internacional Rey de Gloria,,(703) 565-7143,"15418 Cardinal Dr, Woodbridge, VA 22193",,38.6157642,-77.3298685,Pending,,22193,Woodbridge
Ministerio Voz Profética a las Naciones,assistant@visionmvp.org,(571) 477 - 6744,"4349 Ridgewood Center Dr #201, Woodbridge, VA 22192",https://www.visionmvp.org/,38.6727432,-77.3395865,Pending,,22192,Woodbridge
Mt. Olive Baptist Church,,(703) 494-4466,"13111 Minnieville Rd, Woodbridge, VA 22192",www.mobcwoodbridge.org,38.6636369,-77.2892575,Pending,,22192,Woodbridge
National Alliance on Mental Illness Prince William,,703-659-9983,"PO Box 1423, Woodbridge, VA, 22195",https://nami-pw.org/,38.63,-77.27,Pending,,22195,Woodbridge
Neabsco Baptist Church,pastor@neabscobaptist.org,"703-595-9657,  571-205-0551
","15545 Cardinal Dr, Woodbridge, VA 22193",http://neabscobaptist.org/,38.6158195,-77.317929,Pending,,22193,Woodbridge
New Life Church of God in Christ,,(703) 670-6011,"13163 Centerpointe Way, Woodbridge, VA 22193",,38.666986,-77.334131,Pending,,22193,Woodbridge
Occoquan Bible Church,admin@obc.org,703-878-4673,"3700 Old Bridge Rd, Woodbridge, VA 22192",http://www.obc.org/,38.6806055,-77.3230254,Pending,,22192,Woodbridge
Old Bridge Estates Community,,(703) 590-5300,"3600 Beaver Pond Rd, Woodbridge, VA 22192",https://oldbridgeestates.connectresident.com/,38.6757728,-77.320978,Pending,,22192,Woodbridge
Old Bridge United Methodist Church,Leadpastor@oldbridgechurch.org,703-730-3895,"3966 Old Bridge Rd, Woodbridge, VA 22192",http://www.oldbridgechurch.org/,38.6777365,-77.3280803,Pending,,22192,Woodbridge
One Mind Church,,(703) 491-3797,"13430 Millwood Dr, Woodbridge, VA 22191",www.onemindchurch.org,38.6604256,-77.2626113,Pending,,22191,Woodbridge
Our Lady of Angels Catholic Church,olacc13752@gmail.com,(703) 494-2444,"13752 Marys Way, Woodbridge, VA 22191",www.olacc.org,38.6537402,-77.2563377,Pending,,22191,Woodbridge
Pathway Vineyard Church,info@pathwayvine.org,(703) 494-8587,"1550 Prince William Pkwy, Woodbridge, VA 22191",www.pathwayvine.org,38.65059,-77.2616848,Pending,,22191,Woodbridge
Potomac Library,,703-792-8330,"2201 Opitz Blvd, Woodbridge, VA 22191
",www.pwcva.gov/library,38.6327224,-77.2806805,Pending,,22191,Woodbridge
Potomac Valley Church,greatereveryday@gmail.com,703-878-6937,"15201 Neabsco Mills Rd. Woodbridge, VA 22191",www.http://potomacvalleychurch.com,38.6214859,-77.2879242,Pending,,22191,Woodbridge
Praise Center Church Of God In Christ. ,,571-781-2722,"P.O. BOX 2733, Woodbridge, VA 22195",,38.63,-77.27,Pending,,22195,Woodbridge
Prince William - Area Agency on Aging,,(703) 792-5085,"13850 Church Hill Dr., Woodbridge, VA 22191",www.pwcgov.org/aginf,38.6501228,-77.265803,Pending,,22191,Woodbridge
Prince William Area Free Clinic,,,"13900 Church Hill Dr, Woodbridge, VA 22191, USA",https://www.pwafc.org/,38.6490187,-77.2644782,Pending,,22191,Woodbridge
Prince William County Center,info@pwcchoa.com,(703) 580-9650,"4799 Wermuth Way, Woodbridge, VA 22192",https://pwcchoa.com/,38.6734706,-77.3504311,Pending,,22192,Woodbridge
Prince William County Community Foundation -- C.H.O.W. Wagon,info@pwccfoundation.org,800-455-4773,"PO box 5148, Woodbridge, VA 22194",https://www.pwccfoundation.org/program-services-chow-wagon,38.63,-77.27,Pending,,22194,Woodbridge
Prince William County Community Services ,,(703) 792-4900 ,"15941 Donald Curtis Drive, Suite 200, Woodbridge, VA ",,38.6082438,-77.2954709,Pending,,22191,Woodbridge
Prince William County Department of Development Services,KDuff@pwcgov.org,(703)792-6947,"4379 Ridgewood Center Drive Suite 202, Prince William, VA 22192",www.pwcva.gov ,38.6736422,-77.3407617,Pending,,22192,Woodbridge
Prince William County Human Rights Division,kkearns@alternasource.com,703-792-6944,"15941 Donald Curtis Drive, Suite 125, Woodbridge, VA 22191",,38.6082405,-77.2955553,Pending,,22191,Woodbridge
Prince william County Office of Housing and Community Development,housing@pwcgov.org,703-792-7530,"15941 Donald Curtis Drive, Ste 112, Woodbridge, VA 22191",https://www.pwcva.gov/department/housing-community-development,38.6081286,-77.2953813,Pending,,22191,Woodbridge
Prince William Senior Centers -- Woodbridge Senior Center,,(703) 792-5081,"13850 Church Hill Drive, Woodbridge, Virginia, 22191",https://www.pwcva.gov/department/area-agency-aging/senior-centers,38.6501228,-77.265803,Pending,,22191,Woodbridge
Prince William Soccer,rcheshire@pwsi.org,,"14716 Minnieville Rd Woodbridge, VA 22193",https://www.pwsi.org/,38.6323413,-77.3812718,Pending,,22193,Woodbridge
PWCS Global Welcome Center: Woodbridge Campus,GWCRegistration@pwcs.edu,(571) 374-6813,"15111 Blackburn Rd. Woodbridge, VA 22191",https://www.pwcs.edu/departments/global_welcome_ center/index,38.6220987,-77.2663546,Pending,,22191,Woodbridge
Real Life Church,,(703) 590-5048,"5023 Davis Ford Rd, Woodbridge, VA 22192",https://www.reallifecog.com/,38.6841673,-77.3620584,Pending,,22192,Woodbridge
Refugee and Immigrant Services (RIS) by Lutheran Social Services of the National Capital Area (LSS/NCA),immigration@LSSNCA.org,(202) 723-3000,"3320 Noble Pond Way, 201, Woodbridge, VA 22192",https://lssnca.org/programs/refugee-and-immigrant-services/,38.6498542,-77.308659,Pending,,22192,Woodbridge
Renew Life Worship Center,info@renewlifecenter.org,(703) 490-1900,"13195 Gordon Blvd, Woodbridge, VA 22191",www.renewlifecenter.org,38.6652944,-77.2484855,Pending,,22191,Woodbridge
Riverview Baptist Church,,703-494-4581,"1722 Florida Avenue Woodbridge, VA 22191",http://visitrbc.net/home/,38.6292861,-77.2664843,Pending,,22191,Woodbridge
Royal House Chapel Intl,info@royalhousemd.org,703-962-0815,"17300 River Ridge Blvd, Woodbridge, VA 22191",www.royalhousemd.org,38.5779589,-77.2989562,Pending,,22191,Woodbridge
Salvation Army,,703-580-8991,"1483 Old Bridge Rd, Ste 102, Woodbridge, VA 22192",https://southernusa.salvationarmy.org/nca/prince-william-service-center/,38.6724879,-77.2616851,Pending,,22192,Woodbridge
Saved Hands Foundation,info@SavedHandsFoundation.org,(571) 406-5112,"3360 Post Office Road #1745, Woodbridge, VA 22195",https://www.savedhandsfoundation.org/,38.6508065,-77.3121429,Pending,,22195,Woodbridge
Sharron Baucom Dale City Recreation Center,rbelcourt@pwcgov.org,(703) 792-8650,"14300 Minnieville Rd, Woodbridge, VA 22193",https://www.pwcva.gov/department/dale,38.6422563,-77.3461102,Pending,,22193,Woodbridge
Spirit & Life Church,,(571) 402-4437,"15721 Forest Park Dr, Woodbridge, VA 22193",www.spiritandlifechurch.org,38.6124847,-77.3647434,Pending,,22193,Woodbridge
St Margaret's Episcopal Church,STMEC@VERIZON.NET,703-590-3990,"5290 Saratoga Ln, Woodbridge, VA 22193",http://www.stmargaretsepiscopalva.org/,38.640843,-77.3647248,Pending,,22193,Woodbridge
St. Francis Drop-in Shelter,francias@stfrncis.org,(703) 221-6344,"15941 Donald Curtis Drive., Woodbridge, VA 22193",https://stfrncis.org/meals-for-the-homeless/,38.6081286,-77.2953813,Pending,,22193,Woodbridge
St. Paul United Methodist Church,Mwilson6794@aol.com ,"(703) 494-2445, (703) 568-5694","1400 G St, Woodbridge, VA 22191",www.stpaul-umc.org,38.6636108,-77.2571734,Pending,,22191,Woodbridge
St. Vincent De Paul,olasvdp@olasvdp.org,571-377-8371,"13744 Mary’s Way, Woodbridge, VA 22191",https://www.olasvdp.org/,38.6530411,-77.2565419,Pending,,22191,Woodbridge
St. Vincint De Paul,olasvdp@olasvdp.org, (571) 377-8371 ," 13744 Mary’s Way, Woodbridge, VA 22191",https://www.olasvdp.org/,38.6530411,-77.2565419,Pending,,22191,Woodbridge
Street Light Community Outreach Ministries ,contact@thestreetlight.org,(703) 491-2288,"14806 Blackburn Rd, Woodbridge, VA 22191",https://thestreetlight.org/what_we_do/,38.6310447,-77.2682378,Pending,,22191,Woodbridge
Streetlight Ministries Bill Mehr Drop-In Center (Eastern Prince William County),,703-227-7140,"14716 Potomac Mills Road, Woodbridge, VA",,38.630767,-77.2949524,Pending,,22192,Woodbridge
Tall Oaks Community Center,,703-491-2154,"12298 Cotton Mill Dr, Woodbridge, VA 22192",https://lakeridgeva.com/307/Community-Centers,38.689147,-77.3117327,Pending,,22192,Woodbridge
The Arc of Greater Prince ,dshipman@arcgpw.org,(703) 670-4800,"13505 Hillendale Drive Woodbridge, Virginia 22193",https://arcgpw.org/,38.6570966,-77.3399577,Pending,,22193,Woodbridge
The Church of Jesus Christ of Latter-day Saints,,(703) 730-0180,"3718 Old Bridge Rd, Woodbridge, VA 22192",https://www.lds.org/?lang=eng,38.6802646,-77.3246462,Pending,,22192,Woodbridge
The Connection Church,,(703) 580-1000,"14000 Smoketown Rd, Woodbridge, VA 22192",www.churchpluggedin.com,38.6457112,-77.3040125,Pending,,22192,Woodbridge
The Ferlazzo Emergency Shelter (FES),,(703) 792-3366,"15941 Donald Curtis Dr, Woodbridge, VA 22191",https://www.pwcva.gov/department/social-services/homeless-and-winter-shelters,38.6081286,-77.2953813,Pending,,22191,Woodbridge
The Good News Community Kitchen,office@tgnck.org,872-731-2151,"15929 Canada Goose Loop, Woodbridge, VA 22191",https://www.tgnck.org/,38.6098684,-77.2550159,Pending,,22191,Woodbridge
"The House Student Leadership Center
",info@thehouse-inc.com,703-909-5459,"14000 Crown Ct #105, Woodbridge, VA 22193",http://www.thehouse-inc.com/,38.6500499,-77.3109347,Pending,,22193,Woodbridge
The Life Church,"thelife@thelifedc.org,  rjones@thelifedc.org, khammond@thelifedc.org
",(703) 490-7155,"12680 Darby Brook Ct, Woodbridge, VA 22192",https://www.thelifedc.org/,38.6762871,-77.2650303,Pending,,22192,Woodbridge
The Lord'S Church At Woodbridge,lightjjl@yahoo.com,703-608-4926,"13025 Chinn Park Dr, Woodbridge, VA 22192",https://thelordschurchatwoodbridge.org/,38.6702546,-77.3320643,Pending,,22192,Woodbridge
"The Muriel Humphrey
Childcare Center",dshipman@arcgpw.org,(703) 670-5060,"13505 Hillendale Dr, Woodbridge, VA 22193",https://arcgpw.org/childcare-services/,38.6570966,-77.3399577,Pending,,22193,Woodbridge
The Potter's House,church@pottershouse.comcastbiz.net,(703) 910-4026,"1305 Jefferson Plaza, Woodbridge, VA 22191",www.pottershousewoodbridge.com,38.6520129,-77.2535816,Pending,,22191,Woodbridge
The Salvation Army Corps Community Center,,703-580-8991,"1483 Old Bridge Rd #102, Woodbridge, VA 22192",https://salvationarmynca.org/nca/prince-william-service-center,38.6724879,-77.2616851,Pending,,22192,Woodbridge
Trinity Baptist Church,,(703) 445-2504,"15800 Neabsco Rd, Woodbridge, VA 22191",www.trinitybaptistva.org,38.6049572,-77.2843333,Pending,,22191,Woodbridge
Trinity Lutheran Church,TrinityofWoodbridge@gmail.com,703-897-7373,"12345 Cotton Mill Dr, Woodbridge, VA 22192",http://www.trinityofwoodbridge.org/,38.688548,-77.3164088,Pending,,22192,Woodbridge
Unity Christian Fellowship International (UNITY CHURCH),admin@unityva.org,(703) 491-8234,"14747 Arizona Ave, Woodbridge, VA 22191",http://www.unitychurchva.org/,38.6325452,-77.2621668,Pending,,22191,Woodbridge
Veterans Community Center,CTyrrell2@pwcgov.org,(703) 792-8794,"14300 Veterans Drive, Woodbridge, VA 22191",https://www.pwcva.gov/department/veterans-memorial-park,38.6437414,-77.2498549,Pending,,22191,Woodbridge
"Victory Christian Ministries, Intl. Woodbridge Campus",INFO@VCMI-VA.ORG,571.552.3008,"14015 Minnieville Rd, Woodbridge, VA 22193",https://www.vcmi-va.org/,38.6464856,-77.3304074,Pending,,22193,Woodbridge
Virginia Career Works - Prince William Center,,(703) 586-6800,"13370 Minnieville Road, Woodbridge, VA 22192",https://virginiacareerworks.com/,38.6581756,-77.3028624,Pending,,22192,Woodbridge
Virginia Employment Commission,princewilliam@virginiaworks.gov,(703) 897-0407,"13370 Minnieville Rd, Woddbridge, VA 22192",https://www.vec.virginia.gov/,38.6581756,-77.3028624,Pending,,22192,Woodbridge
Westridge Swim & Racquet Club,,703-590-1600,"12764 Quarterhorse Ln, Woodbridge, VA 22192",http://www.westridgeva.org/default.php,38.6807572,-77.333568,Pending,,22192,Woodbridge
"Women, Infnats, and Childeren (WIC) -- Woodbridge Office",PWHDWIC@vdh.virginia.gov ,703-792-7319,"4001 Prince William Parkway, Suite 204, Woodbridge, VA 22192",https://www.vdh.virginia.gov/prince-william/wic/,38.6651211,-77.3314055,Pending,,22192,Woodbridge
Woodbridge Assembly of God Church,,(571) 278-0107,"14001 Smoketown Rd, Woodbridge, VA 22192",,38.6449449,-77.3010017,Pending,,22192,Woodbridge
Woodbridge Church Of The Brethren,Staff@WCOB.org,(703) 494-4877,"13300 Millwood Dr, Woodbridge, VA 22191",www.wcob.org,38.6598699,-77.2645047,Pending,,22191,Woodbridge
Woodbridge Faith Center,,(703) 909-7230,"13195 Occoquan Rd, Woodbridge, VA 22191",http://woodbridgefaithcenter.org/,38.6651688,-77.2543564,Pending,,22191,Woodbridge
Woodbridge Ghanaian Seventh-Day Adventist Church,enocha@pcsda.org,,"1550 Prince William Pkwy, Woodbridge, VA 22191",https://woodbridgeghanaianva.adventistchurch.org/,38.65059,-77.2616848,Pending,,22191,Woodbridge
Woodbridge Therapy Group,Norgetteasongafac@yahoo.com,(703)497-1771,"2680 Opitz Blvd, Suite 220, Woodbridge, VA 22192",,38.6381012,-77.2956033,Pending,,22192,Woodbridge
World Hazara Council USA,kevin@worldhazaracouncil.org,(571) 888-2888,"4424 Simpson Mill Way, Woodbridge, VA 22192",www.worldhazaracouncilusa.org,38.6809238,-77.3460339,Pending,,22192,Woodbridge
ACTS Sexual Assault Services,info@actspwc.org,(703) 497-1192,nan,https://actspwc.org/sexual-assault/,,,Pending,,,
Adult & Child Protective Services,,(703) 792-4200,nan,https://www.pwcva.gov/department/social-services/child-protective-services,,,Pending,,,
Adult Protective Services (APS),circuitcourt@pwcgov.org,(703) 792-4200,nan,https://www.pwcva.gov/department/social-services/adult-protective-services,,,Pending,,,
Antietam Square Condos,,,nan,,,,Pending,,,
Arc of Greater Prince William -- Family Support Services,jrussell@arcgpw.org,(703) 730-3124,nan,https://arcgpw.org/family-support-services/,,,Pending,,,
Brittany Regency HOA,,(703) 909-5459,nan,,,,Pending,,,
Cardinal Crest HOA,,(703) 670-6061,nan,,,,Pending,,,
Child Find Evaluation Center at Woodbine,BrickeSL@pwcs.edu,703-791-8857,nan,https://www.pwcs.edu/academics___programs/special_education/child_find/preschool_child_find,,,Pending,,,
Child Support,,,nan,https://dss.virginia.gov/family/dcse/,,,Pending,,,
Children’s Regional Crisis Response (CR2),,703-527-4077,nan,https://www.cr2crisis.com/about-our-service,,,Pending,,,
CommonHelp VA,,833-522-5582,nan,commonhelp.virginia.gov/access,,,Pending,,,
Community Healthcare Coalition of Greater Prince William ,mburton@institutephi.org.,,nan,http://www.behealthybehappyprincewilliam.com/index.php?module=Tiles&controller=index&action=display&alias=priorities,,,Pending,,,
Controlled Substance Public Disposal Locations,,,nan,https://bit.ly/Search-Utility,,,Pending,,,
Coordinated Entry (CES),,703-792-3366,nan,,,,Pending,,,
Coordinated Entry System (CES) ,,(703) 792-3366 ,nan,https://www.pwcva.gov/department/homeless-services/coordinated-entry-system-ces,,,Pending,,,
Crest Ridge HOA,,,nan,,,,Pending,,,
Crisis Intervention Services,,See Comments,nan,,,,Pending,,,
Dale City 10th HOA,,703.492.9444,nan,,,,Pending,,,
Dale City 11th HOA,,,nan,,,,Pending,,,
Dale City 14th HOA,,703-530-9800,nan,,,,Pending,,,
Dale City 2nd HOA,,"
(571) 276-0646",nan,,,,Pending,,,
Dale City 3rd HOA,,571.421.2211,nan,,,,Pending,,,
Dale City 4th HOA,,703-841-3830,nan,,,,Pending,,,
Dale City 9th HOA,,(703) 221-4510,nan,,,,Pending,,,
Dale City Lightning Track Club,info@dalecitytrack.org,571-306-3285,nan,https://www.dalecitytrack.org/,,,Pending,,,
Dawnson Landing HOA,,(571) 379-6212,nan,,,,Pending,,,
Domestic Violence -- Court Services Unit/Intake,,703-792-6210,nan,,,,Pending,,,
Domestic Violence -- Domestic Violence Resource Specialist,,703-792-6065,nan,,,,Pending,,,
Domestic Violence -- Victim Witness Assistance Program,,703-392-7083,nan,,,,Pending,,,
Doorways for Women & Families (Arlington),,703-504-9400,nan,,,,Pending,,,
Early Intervention - Infant & Toddler Connection of Greater Prince William,,(703) 792-7879,nan,https://www.pwcva.gov/department/community-services/infant-toddler-services,,,Pending,,,
Family Loan Program,,703-490-3646,nan,,,,Pending,,,
Forest Vista HOA,,(703) 730-1078,nan,,,,Pending,,,
Free Legal Questions,,866-534-5243,nan,valegalaid.org,,,Pending,,,
Georgetown Park HOA,,703-459-5257,nan,,,,Pending,,,
Georgetown Village Community,,(703) 221-6344 ,nan,,,,Pending,,,
Good News Washington Church,,(703) 973-7975,nan,http://goodnewsmission.net/,,,Pending,,,
Health Insurance Online,,,,http://www.online-health-insurance.com/,,,Pending,,,
Health Link Dentist Referral,,703-362-4901 ext 17,nan,,,,Pending,,,
HealthCare.gov,,,,https://www.healthcare.gov/,,,Pending,,,
Healthy Families (NVFS),,(703) 944-8752,nan,Healthy Families - Northern Virginia Family Service (nvfs.org),,,Pending,,,
Human Rights Campaign - The Trevor Project (Youth 13-24),,866-488-7386,nan,hrc.org/resources/direct-online-and-phone-support-services-for-lgbtq-youth,,,Pending,,,
Hypothermia Services,,703-792-3366,nan,http://pwcva.org/hypothermia-services,,,Pending,,,
Improve Life Support Group,,,nan,,,,Pending,,,
INOVA Care Clinic For Families,,571-719-4180,nan,,,,Pending,,,
Kelley Farm HOA,,202-466-4664 ,nan,,,,Pending,,,
Laurel Center (Winchester),,540-667-6466,nan,,,,Pending,,,
LAWS 24/7 Crisis Center and Shelter Line (loudoun),,703-777-6552,nan,,,,Pending,,,
Legal Justice Center,,866-534-5243,nan,justice4all.org/get-help/,,,Pending,,,
Local Domestic Violence Hotline ,,(703) 221-4951,nan,,,,Pending,,,
LOCCA/PELT,, (703) 491-2288,nan,,,,Pending,,,
Logan Woods HOA,,571-748-2500,nan,,,,Pending,,,
Low-Income Saftey Seats (VDH),,,nan,https://www.vdh.virginia.gov/child-passenger-safety/low-income-safety-seat-program/,,,Pending,,,
Markham's Grant HOA,,(703) 368-7995,nan,,,,Pending,,,
Medical Health Department,,703-792-6300 (M)/703-792-7300 (W),nan,,,,Pending,,,
Medicine Assistance Tool,,(571) 350-8643,nan,https://medicineassistancetool.org/,,,Pending,,,
Mental Health First Aid (MHFA),,,nan,https://www.mentalhealthfirstaid.org/take-a-course/find-a-course/,,,Pending,,,
Mid County Civic Association (MIDCO),,(703) 670-4800,nan,,,,Pending,,,
Mobile Mammograms (UVA Health),,,nan,,,,Pending,,,
MommyMeds,,,nan,Apple: https://apps.apple.com/us/app/mommymeds/id669222544 Android: https://play.google.com/store/apps/detailsid=com.infant risk.mommymeds.paid,,,Pending,,,
Morgan Point HOA,,703-369-5292 ,nan,,,,Pending,,,
Mother of Mercy,,,nan,,,,Pending,,,
My Meal Detective,FoodSafety@vdh.virginia.gov,,nan,https://redcap.vdh.virginia.gov/redcap/surveys/?s=PJACE4A4EY,,,Pending,,,
National Association of Insurance Commissioners,help@naic.org,(816) 783-8500,nan,https://content.naic.org/consumer.htm,,,Pending,,,
National Call Center for Homeless Veterans ,,(877) 424-3838,nan,,,,Pending,,,
National Center for Victims of Crime,,855-443-5782 (Infoline),nan,,,,Pending,,,
National Deaf Domestic Violence Hotline,nationaldeafhotline@adwas.org,855-812-1001,nan,http://thedeafhotline.org/,,,Pending,,,
National Domestic Violence Hotline ,,(800) 799-7233,nan,,,,Pending,,,
National Drug Helpline,,844-289-0857,nan,,,,Pending,,,
National Empowerment Center,,978-685-1494,nan,https://power2u.org/,,,Pending,,,
National Human Trafficking Hotline ,,(888) 373-7888,nan,,,,Pending,,,
National Runaway Safeline,,1-800-RUNAWAY (1-800-786-2929),nan,https://www.1800runaway.org/,,,Pending,,,
National Sexual Assault Hotline ,,(800) 656-4673,nan,,,,Pending,,,
National Suicide Prevention Hotline ,,988 or (800) 273-8255,nan,,,,Pending,,,
National TPS Alliance,info@ntpsalliance.org,,nan,https://www.nationaltpsalliance.org/,,,Pending,,,
National Veterans Crisis Hotline ,,988 press 1 or (800) 273-8255,nan,,,,Pending,,,
Needy Meds,info@needymeds.org,1-(800) 503-6897,nan,https://www.needymeds.org/,,,Pending,,,
Next Distro,,,nan,,,,Pending,,,
Northern Virginia Family Service,info@nvfs.org,571-444-6664,nan,https://www.nvfs.org/our-services/health-well-being/health-access/,,,Pending,,,
NOVA Pride,brian@novapride.org (press/blog contact),,nan,novapride.org,,,Pending,,,
NVFS Early Headstart (Ages 0-3) Childcare Program - Arlington,,571-748-2796,nan,https://www.nvfs.org/our-services/early-childhood-development/early-head-%20start/,,,Pending,,,
NVFS Early Headstart (Ages 0-3) Childcare Program - Loudoun,,571-748-2792,nan,https://www.nvfs.org/our-services/early-childhood-development/early-head-%20start/,,,Pending,,,
NVFS Early Headstart (Ages 0-3) Childcare Program - Manassas,,571-748-277,nan,https://www.nvfs.org/our-services/early-childhood-development/early-head-%20start/,,,Pending,,,
NVFS Early Headstart (Ages 0-3) Childcare Program - Woodbridge,,571-748-2703,nan,https://www.nvfs.org/our-services/early-childhood-development/early-head-%20start/,,,Pending,,,
NVFS Healthy Families,hfpwreferral@nvfs.org,,nan,https://www.nvfs.org/our-services/early-childhood-development/healthy-families/,,,Pending,,,
Occoquan Oaks HOA,,,nan,,,,Pending,,,
Opioid Response and Naloxone Education,csbhwteam@pwcgov.org,571-866-6400,nan,https://www.pwcva.gov/department/community-services/naloxone-education/,,,Pending,,,
Panaorama Latino TV Show,panoramalatino3@aol.com,(703)851-5525,nan,,,,Pending,,,
Park Rx America,doczarr@parkrxamerica.org,,nan,https://parkrxamerica.org/,,,Pending,,,
Partnership to End Addiction,,,nan,,,,Pending,,,
Patient Help Network - Low Cost Prescription Refill Assistance,,,nan,http://patienthelpnetwork.org/,,,Pending,,,
Pediatric Primary Care Project,,(703) 244-7310,nan,Pediatric Primary Care Project - Northern Virginia Family Service (nvfs.org),,,Pending,,,
PeopleReady,,703-530-6530,nan,,,,Pending,,,
Port Potomac HOA,,(703) 499-9034,nan,,,,Pending,,,
Postpartun Psychosis facebook Groups,,,nan,Activism & Advocacy: https://www.facebook.com/groups/ 869281459947181/ Forum: https://www.facebook.com/groups/357619024101/ Survivors: https://www.facebook.com/groups/413383649158314/,,,Pending,,,
Pregnancy and Postpartum Psychosis Community Mosaic,,,nan,https://pppawarenessday.org/community-mosaic-submission/,,,Pending,,,
Preschool Programs (PWCS),wilderaj@pwcs.edu,(703) 791-8708,nan,https://www.pwcs.edu/academics___programs/head_start/index,,,Pending,,,
Prince William Area Agency on Aging,,703-792-6374,nan,pwcva.gov/aaa,,,Pending,,,
Prince William Area Agency on Aging Long-Term Care Ombudsman Program,LTCOmbudsman@pwcgov.org,703-792-7662,nan,https://www.pwcva.gov/department/area-agency-aging/long-term-care-ombudsman,,,Pending,,,
Prince William County Bar Association Lawyer Referral Service (LRS),,703-393-2306,nan,,,,Pending,,,
Prince William County Community Services Emergency Hotline,,703-792-7800,nan,,,,Pending,,,
Prince William County Community Services Intensive Adult Mental Health Services - Manassas,,703-792-7800,nan,https://pwcva.gov/department/community-services/sda,,,Pending,,,
Prince William County Community Services Intensive Adult Mental Health Services - Woodbridge,,703-792-4900,nan,https://pwcva.gov/department/community-services/sda,,,Pending,,,
Prince William Special Olympics,Areacoordinator@pwsova.org,571-577-8035,nan,http://www.pwsova.org/pwso/,,,Pending,,,
PW Interfaith Caregivers,,703-369-5063,nan,,,,Pending,,,
Queens Landing HOA,,703-257-5400,nan,,,,Pending,,,
"Rape, Abuse, & Incest National Network",,1-800-656-HOPE (1-800-656-4673),nan,http://www.rainn.org/,,,Pending,,,
River Falls HOA,,,nan,,,,Pending,,,
SAMHSA's National Helpline,,1-800-662-4357,nan,,,,Pending,,,
Saving Prince William's Littles,savingnovaslittles@gmail.com,(703) 662-5222,nan,https://savingprincewilliamslittles.com,,,Pending,,,
School Age Process,"BrickeSL@pwcs.edu
",,nan,https://www.pwcs.edu/academics___programs/special_education/child_find/school_age_child_find,,,Pending,,,
Sentara Mobile Care,,703-523-1095,,https://www.sentara.com/hospitalslocations/sentara-community-care/sentara-mobile-care,,,Pending,,,
Sista Midwife directory,,,nan,https://www.sistamidwifedirectory.com/,,,Pending,,,
Special Needs Dental Directory,,,nan,https://apps.vdh.virginia.gov/livewell/findadentist/,,,Pending,,,
Tahirih Justice Center,,"(571) 282-6161, appointment only",nan,https://www.tahirih.org/get-help/,,,Pending,,,
Teen Crisis Line/Second Story For Teens,,"CALL 1-800-SAY-TEEN (1-800-729-8336) TEXT ""NEED HELP"" TO 855-11, (703) 944-8752",nan,https://www.secondstory.org/,,,Pending,,,
Text4Baby,,,nan,https://www.text4baby.org/,,,Pending,,,
The Church of Saint Martin,,cannot find,nan,,,,Pending,,,
The Strong Hearts Native Hotline,,1-844-7NATIVE (1-844-762-8483),nan,http://www.strongheartshelpline.org/,,,Pending,,,
The Trevor Project,,1-866-488-7386,nan,https://www.thetrevorproject.org/get-help/,,,Pending,,,
Ticket to Work,,866-968-7842,nan,https://vcwnorthern.com/ticket-to-work/,,,Pending,,,
Towns of Forest Hills HOA,,(301)681-6636,nan,,,,Pending,,,
Transitional Housing Program,agonzalez@pwcgov.org,(703) 492-2301,nan,https://www.pwcva.gov/department/housing-community-development/transitional-housing,,,Pending,,,
US VETS,mtalford@usvets.org,202-683-8357,nan,usvets.org/locations/washington-dc,,,Pending,,,
VA Department of Enviromental Quality,,,nan,https://www.deq.virginia.gov/our-programs/disaster-preparedness,,,Pending,,,
Veterans First Friendship Place,,(202) 364-1419,nan,,,,Pending,,,
Veterans with VA-Guaranteed Home Loans,,877-827-3702,nan,,,,Pending,,,
Virginia Department for Aging and Rehabilitative Services (DARS) - DARS Manassass office and evaluation center,,703-335-5550,nan,https://www.dars.virginia.gov/cbs/ltcrm.htm,,,Pending,,,
Virginia Department for Aging and Rehabilitative Services (DARS) - Manassas fabrication center,,703-335-2150,nan,https://www.dars.virginia.gov/cbs/ltcrm.htm,,,Pending,,,
Virginia Has Jobs,,,nan,https://virginiahasjobs.com/,,,Pending,,,
Virginia Judicial System Court Self-Help Website,,,nan,selfhelp.vacourts.gov,,,Pending,,,
Virginia Lawyer Referral Service (VLRS),lawyerreferral@vsb.org,800-552-7977/804-775-0808,nan,,,,Pending,,,
Virginia LGBTQ+ Advisory Board Resources,,,nan,lgbtq.virginia.gov/resources,,,Pending,,,
Virginia Veteran and Family Support,,(804) 786-0286,nan,,,,Pending,,,
Volunteers of America Chesapeake ,,(703) 341-5077,nan,,,,Pending,,,
Woodbridge Commons HOA,,"(703) 969-0197, (703) 863-7422",nan,,,,Pending,,,
Woodbridge Napalese Society,,,nan,,,,Pending,,,
World Mission Society Church Of God,,Cannot find,nan,http://english.watv.org/,,,Pending,,,
Virginia Fresh Match (SNAP provider),info@virginiafreshmatch.org,549-212-9482,"10490 Gemini Way, Dale City, VA, 22193",https://www.virginiafreshmatch.org/locate,38.643,-77.313,Pending,,22193,Dale City